{
  "type": "FeatureCollection",
  "name": "candidate_nodes",
  "features": [
    {
      "type": "Feature",
      "geometry": {
        "type": "Point",
        "coordinates": [
          -60.673511017,
          2.81967043300006
        ]
      },
      "properties": {
        "node_id": "capital:1400100",
        "name": "Boa Vista",
        "kind": "capital",
        "longitude": -60.673511017,
        "latitude": 2.81967043300006,
        "terrain_elevation_m": 84.0,
        "terrain_source": "Mapzen Terrain Tiles terrarium z8",
        "radome_height_agl_m": 15.0,
        "target_altitude_m": 3000.0,
        "coverage_radius_km": 266.793,
        "nearby_city_count": 15,
        "radius_status": "geometric_upper_bound_topographic_occlusion_pending"
      }
    },
    {
      "type": "Feature",
      "geometry": {
        "type": "Point",
        "coordinates": [
          -43.9514005979999,
          -19.8910530989999
        ]
      },
      "properties": {
        "node_id": "capital:3106200",
        "name": "Belo Horizonte",
        "kind": "capital",
        "longitude": -43.9514005979999,
        "latitude": -19.8910530989999,
        "terrain_elevation_m": 855.0,
        "terrain_source": "Mapzen Terrain Tiles terrarium z8",
        "radome_height_agl_m": 15.0,
        "target_altitude_m": 3000.0,
        "coverage_radius_km": 347.36,
        "nearby_city_count": 773,
        "radius_status": "geometric_upper_bound_topographic_occlusion_pending"
      }
    },
    {
      "type": "Feature",
      "geometry": {
        "type": "Point",
        "coordinates": [
          -67.7903522567552,
          -10.0097268232308
        ]
      },
      "properties": {
        "node_id": "capital:1200401",
        "name": "Rio Branco",
        "kind": "capital",
        "longitude": -67.7903522567552,
        "latitude": -10.0097268232308,
        "terrain_elevation_m": 140.0,
        "terrain_source": "Mapzen Terrain Tiles terrarium z8",
        "radome_height_agl_m": 15.0,
        "target_altitude_m": 3000.0,
        "coverage_radius_km": 277.097,
        "nearby_city_count": 16,
        "radius_status": "geometric_upper_bound_topographic_occlusion_pending"
      }
    },
    {
      "type": "Feature",
      "geometry": {
        "type": "Point",
        "coordinates": [
          -48.324708728,
          -10.1939013589999
        ]
      },
      "properties": {
        "node_id": "capital:1721000",
        "name": "Palmas",
        "kind": "capital",
        "longitude": -48.324708728,
        "latitude": -10.1939013589999,
        "terrain_elevation_m": 265.0,
        "terrain_source": "Mapzen Terrain Tiles terrarium z8",
        "radome_height_agl_m": 15.0,
        "target_altitude_m": 3000.0,
        "coverage_radius_km": 294.753,
        "nearby_city_count": 97,
        "radius_status": "geometric_upper_bound_topographic_occlusion_pending"
      }
    },
    {
      "type": "Feature",
      "geometry": {
        "type": "Point",
        "coordinates": [
          -43.1947250599999,
          -22.9124689469999
        ]
      },
      "properties": {
        "node_id": "capital:3304557",
        "name": "Rio de Janeiro",
        "kind": "capital",
        "longitude": -43.1947250599999,
        "latitude": -22.9124689469999,
        "terrain_elevation_m": 11.0,
        "terrain_source": "Mapzen Terrain Tiles terrarium z8",
        "radome_height_agl_m": 15.0,
        "target_altitude_m": 3000.0,
        "coverage_radius_km": 246.798,
        "nearby_city_count": 277,
        "radius_status": "geometric_upper_bound_topographic_occlusion_pending"
      }
    },
    {
      "type": "Feature",
      "geometry": {
        "type": "Point",
        "coordinates": [
          -34.861604562,
          -7.12860940599995
        ]
      },
      "properties": {
        "node_id": "capital:2507507",
        "name": "João Pessoa",
        "kind": "capital",
        "longitude": -34.861604562,
        "latitude": -7.12860940599995,
        "terrain_elevation_m": 44.0,
        "terrain_source": "Mapzen Terrain Tiles terrarium z8",
        "radome_height_agl_m": 15.0,
        "target_altitude_m": 3000.0,
        "coverage_radius_km": 257.441,
        "nearby_city_count": 361,
        "radius_status": "geometric_upper_bound_topographic_occlusion_pending"
      }
    },
    {
      "type": "Feature",
      "geometry": {
        "type": "Point",
        "coordinates": [
          -35.2227804579999,
          -5.83396545499994
        ]
      },
      "properties": {
        "node_id": "capital:2408102",
        "name": "Natal",
        "kind": "capital",
        "longitude": -35.2227804579999,
        "latitude": -5.83396545499994,
        "terrain_elevation_m": 40.0,
        "terrain_source": "Mapzen Terrain Tiles terrarium z8",
        "radome_height_agl_m": 15.0,
        "target_altitude_m": 3000.0,
        "coverage_radius_km": 256.349,
        "nearby_city_count": 308,
        "radius_status": "geometric_upper_bound_topographic_occlusion_pending"
      }
    },
    {
      "type": "Feature",
      "geometry": {
        "type": "Point",
        "coordinates": [
          -54.61854011,
          -20.4685544869999
        ]
      },
      "properties": {
        "node_id": "capital:5002704",
        "name": "Campo Grande",
        "kind": "capital",
        "longitude": -54.61854011,
        "latitude": -20.4685544869999,
        "terrain_elevation_m": 525.0,
        "terrain_source": "Mapzen Terrain Tiles terrarium z8",
        "radome_height_agl_m": 15.0,
        "target_altitude_m": 3000.0,
        "coverage_radius_km": 321.565,
        "nearby_city_count": 82,
        "radius_status": "geometric_upper_bound_topographic_occlusion_pending"
      }
    },
    {
      "type": "Feature",
      "geometry": {
        "type": "Point",
        "coordinates": [
          -46.648144513999895,
          -23.5646324149999
        ]
      },
      "properties": {
        "node_id": "capital:3550308",
        "name": "São Paulo",
        "kind": "capital",
        "longitude": -46.648144513999895,
        "latitude": -23.5646324149999,
        "terrain_elevation_m": 835.0,
        "terrain_source": "Mapzen Terrain Tiles terrarium z8",
        "radome_height_agl_m": 15.0,
        "target_altitude_m": 3000.0,
        "coverage_radius_km": 345.955,
        "nearby_city_count": 614,
        "radius_status": "geometric_upper_bound_topographic_occlusion_pending"
      }
    },
    {
      "type": "Feature",
      "geometry": {
        "type": "Point",
        "coordinates": [
          -49.2647573579999,
          -25.4595973749999
        ]
      },
      "properties": {
        "node_id": "capital:4106902",
        "name": "Curitiba",
        "kind": "capital",
        "longitude": -49.2647573579999,
        "latitude": -25.4595973749999,
        "terrain_elevation_m": 919.0,
        "terrain_source": "Mapzen Terrain Tiles terrarium z8",
        "radome_height_agl_m": 15.0,
        "target_altitude_m": 3000.0,
        "coverage_radius_km": 351.753,
        "nearby_city_count": 604,
        "radius_status": "geometric_upper_bound_topographic_occlusion_pending"
      }
    },
    {
      "type": "Feature",
      "geometry": {
        "type": "Point",
        "coordinates": [
          -48.5044302009999,
          -1.45635618399996
        ]
      },
      "properties": {
        "node_id": "capital:1501402",
        "name": "Belém",
        "kind": "capital",
        "longitude": -48.5044302009999,
        "latitude": -1.45635618399996,
        "terrain_elevation_m": 7.0,
        "terrain_source": "Mapzen Terrain Tiles terrarium z8",
        "radome_height_agl_m": 15.0,
        "target_altitude_m": 3000.0,
        "coverage_radius_km": 245.114,
        "nearby_city_count": 72,
        "radius_status": "geometric_upper_bound_topographic_occlusion_pending"
      }
    },
    {
      "type": "Feature",
      "geometry": {
        "type": "Point",
        "coordinates": [
          -44.21098739,
          -2.54210241399994
        ]
      },
      "properties": {
        "node_id": "capital:2111300",
        "name": "São Luís",
        "kind": "capital",
        "longitude": -44.21098739,
        "latitude": -2.54210241399994,
        "terrain_elevation_m": 38.0,
        "terrain_source": "Mapzen Terrain Tiles terrarium z8",
        "radome_height_agl_m": 15.0,
        "target_altitude_m": 3000.0,
        "coverage_radius_km": 255.788,
        "nearby_city_count": 143,
        "radius_status": "geometric_upper_bound_topographic_occlusion_pending"
      }
    },
    {
      "type": "Feature",
      "geometry": {
        "type": "Point",
        "coordinates": [
          -38.501083216,
          -12.971772034
        ]
      },
      "properties": {
        "node_id": "capital:2927408",
        "name": "Salvador",
        "kind": "capital",
        "longitude": -38.501083216,
        "latitude": -12.971772034,
        "terrain_elevation_m": 35.0,
        "terrain_source": "Mapzen Terrain Tiles terrarium z8",
        "radome_height_agl_m": 15.0,
        "target_altitude_m": 3000.0,
        "coverage_radius_km": 254.927,
        "nearby_city_count": 197,
        "radius_status": "geometric_upper_bound_topographic_occlusion_pending"
      }
    },
    {
      "type": "Feature",
      "geometry": {
        "type": "Point",
        "coordinates": [
          -42.796507434,
          -5.09649988199993
        ]
      },
      "properties": {
        "node_id": "capital:2211001",
        "name": "Teresina",
        "kind": "capital",
        "longitude": -42.796507434,
        "latitude": -5.09649988199993,
        "terrain_elevation_m": 91.0,
        "terrain_source": "Mapzen Terrain Tiles terrarium z8",
        "radome_height_agl_m": 15.0,
        "target_altitude_m": 3000.0,
        "coverage_radius_km": 268.218,
        "nearby_city_count": 230,
        "radius_status": "geometric_upper_bound_topographic_occlusion_pending"
      }
    },
    {
      "type": "Feature",
      "geometry": {
        "type": "Point",
        "coordinates": [
          -51.2270350100187,
          -30.037857612131
        ]
      },
      "properties": {
        "node_id": "capital:4314902",
        "name": "Porto Alegre",
        "kind": "capital",
        "longitude": -51.2270350100187,
        "latitude": -30.037857612131,
        "terrain_elevation_m": 11.0,
        "terrain_source": "Mapzen Terrain Tiles terrarium z8",
        "radome_height_agl_m": 15.0,
        "target_altitude_m": 3000.0,
        "coverage_radius_km": 246.798,
        "nearby_city_count": 310,
        "radius_status": "geometric_upper_bound_topographic_occlusion_pending"
      }
    },
    {
      "type": "Feature",
      "geometry": {
        "type": "Point",
        "coordinates": [
          -48.54047245434407,
          -27.59953708566037
        ]
      },
      "properties": {
        "node_id": "capital:4205407",
        "name": "Florianópolis",
        "kind": "capital",
        "longitude": -48.54047245434407,
        "latitude": -27.59953708566037,
        "terrain_elevation_m": 129.0,
        "terrain_source": "Mapzen Terrain Tiles terrarium z8",
        "radome_height_agl_m": 15.0,
        "target_altitude_m": 3000.0,
        "coverage_radius_km": 275.243,
        "nearby_city_count": 234,
        "radius_status": "geometric_upper_bound_topographic_occlusion_pending"
      }
    },
    {
      "type": "Feature",
      "geometry": {
        "type": "Point",
        "coordinates": [
          -63.8314456543611,
          -8.76889179
        ]
      },
      "properties": {
        "node_id": "capital:1100205",
        "name": "Porto Velho",
        "kind": "capital",
        "longitude": -63.8314456543611,
        "latitude": -8.76889179,
        "terrain_elevation_m": 88.0,
        "terrain_source": "Mapzen Terrain Tiles terrarium z8",
        "radome_height_agl_m": 15.0,
        "target_altitude_m": 3000.0,
        "coverage_radius_km": 267.613,
        "nearby_city_count": 21,
        "radius_status": "geometric_upper_bound_topographic_occlusion_pending"
      }
    },
    {
      "type": "Feature",
      "geometry": {
        "type": "Point",
        "coordinates": [
          -60.0255074129999,
          -3.10236266499993
        ]
      },
      "properties": {
        "node_id": "capital:1302603",
        "name": "Manaus",
        "kind": "capital",
        "longitude": -60.0255074129999,
        "latitude": -3.10236266499993,
        "terrain_elevation_m": 30.0,
        "terrain_source": "Mapzen Terrain Tiles terrarium z8",
        "radome_height_agl_m": 15.0,
        "target_altitude_m": 3000.0,
        "coverage_radius_km": 253.431,
        "nearby_city_count": 23,
        "radius_status": "geometric_upper_bound_topographic_occlusion_pending"
      }
    },
    {
      "type": "Feature",
      "geometry": {
        "type": "Point",
        "coordinates": [
          -51.066448717999904,
          0.03865462300007
        ]
      },
      "properties": {
        "node_id": "capital:1600303",
        "name": "Macapá",
        "kind": "capital",
        "longitude": -51.066448717999904,
        "latitude": 0.03865462300007,
        "terrain_elevation_m": 10.0,
        "terrain_source": "Mapzen Terrain Tiles terrarium z8",
        "radome_height_agl_m": 15.0,
        "target_altitude_m": 3000.0,
        "coverage_radius_km": 246.39,
        "nearby_city_count": 25,
        "radius_status": "geometric_upper_bound_topographic_occlusion_pending"
      }
    },
    {
      "type": "Feature",
      "geometry": {
        "type": "Point",
        "coordinates": [
          -56.0978564219999,
          -15.6006662149999
        ]
      },
      "properties": {
        "node_id": "capital:5103403",
        "name": "Cuiabá",
        "kind": "capital",
        "longitude": -56.0978564219999,
        "latitude": -15.6006662149999,
        "terrain_elevation_m": 177.0,
        "terrain_source": "Mapzen Terrain Tiles terrarium z8",
        "radome_height_agl_m": 15.0,
        "target_altitude_m": 3000.0,
        "coverage_radius_km": 282.895,
        "nearby_city_count": 57,
        "radius_status": "geometric_upper_bound_topographic_occlusion_pending"
      }
    },
    {
      "type": "Feature",
      "geometry": {
        "type": "Point",
        "coordinates": [
          -34.879125316999904,
          -8.04263950999996
        ]
      },
      "properties": {
        "node_id": "capital:2611606",
        "name": "Recife",
        "kind": "capital",
        "longitude": -34.879125316999904,
        "latitude": -8.04263950999996,
        "terrain_elevation_m": 5.0,
        "terrain_source": "Mapzen Terrain Tiles terrarium z8",
        "radome_height_agl_m": 15.0,
        "target_altitude_m": 3000.0,
        "coverage_radius_km": 244.214,
        "nearby_city_count": 343,
        "radius_status": "geometric_upper_bound_topographic_occlusion_pending"
      }
    },
    {
      "type": "Feature",
      "geometry": {
        "type": "Point",
        "coordinates": [
          -37.063495106999895,
          -10.924874906999898
        ]
      },
      "properties": {
        "node_id": "capital:2800308",
        "name": "Aracaju",
        "kind": "capital",
        "longitude": -37.063495106999895,
        "latitude": -10.924874906999898,
        "terrain_elevation_m": 12.0,
        "terrain_source": "Mapzen Terrain Tiles terrarium z8",
        "radome_height_agl_m": 15.0,
        "target_altitude_m": 3000.0,
        "coverage_radius_km": 247.199,
        "nearby_city_count": 249,
        "radius_status": "geometric_upper_bound_topographic_occlusion_pending"
      }
    },
    {
      "type": "Feature",
      "geometry": {
        "type": "Point",
        "coordinates": [
          -35.7150518679999,
          -9.640481850999949
        ]
      },
      "properties": {
        "node_id": "capital:2704302",
        "name": "Maceió",
        "kind": "capital",
        "longitude": -35.7150518679999,
        "latitude": -9.640481850999949,
        "terrain_elevation_m": 52.0,
        "terrain_source": "Mapzen Terrain Tiles terrarium z8",
        "radome_height_agl_m": 15.0,
        "target_altitude_m": 3000.0,
        "coverage_radius_km": 259.52,
        "nearby_city_count": 327,
        "radius_status": "geometric_upper_bound_topographic_occlusion_pending"
      }
    },
    {
      "type": "Feature",
      "geometry": {
        "type": "Point",
        "coordinates": [
          -49.263088282999895,
          -16.697998324
        ]
      },
      "properties": {
        "node_id": "capital:5208707",
        "name": "Goiânia",
        "kind": "capital",
        "longitude": -49.263088282999895,
        "latitude": -16.697998324,
        "terrain_elevation_m": 815.0,
        "terrain_source": "Mapzen Terrain Tiles terrarium z8",
        "radome_height_agl_m": 15.0,
        "target_altitude_m": 3000.0,
        "coverage_radius_km": 344.532,
        "nearby_city_count": 261,
        "radius_status": "geometric_upper_bound_topographic_occlusion_pending"
      }
    },
    {
      "type": "Feature",
      "geometry": {
        "type": "Point",
        "coordinates": [
          -47.880611965,
          -15.783689652
        ]
      },
      "properties": {
        "node_id": "capital:5300108",
        "name": "Brasília",
        "kind": "capital",
        "longitude": -47.880611965,
        "latitude": -15.783689652,
        "terrain_elevation_m": 1077.0,
        "terrain_source": "Mapzen Terrain Tiles terrarium z8",
        "radome_height_agl_m": 15.0,
        "target_altitude_m": 3000.0,
        "coverage_radius_km": 361.993,
        "nearby_city_count": 277,
        "radius_status": "geometric_upper_bound_topographic_occlusion_pending"
      }
    },
    {
      "type": "Feature",
      "geometry": {
        "type": "Point",
        "coordinates": [
          -38.52522151593698,
          -3.722856534745978
        ]
      },
      "properties": {
        "node_id": "capital:2304400",
        "name": "Fortaleza",
        "kind": "capital",
        "longitude": -38.52522151593698,
        "latitude": -3.722856534745978,
        "terrain_elevation_m": 26.0,
        "terrain_source": "Mapzen Terrain Tiles terrarium z8",
        "radome_height_agl_m": 15.0,
        "target_altitude_m": 3000.0,
        "coverage_radius_km": 252.174,
        "nearby_city_count": 128,
        "radius_status": "geometric_upper_bound_topographic_occlusion_pending"
      }
    },
    {
      "type": "Feature",
      "geometry": {
        "type": "Point",
        "coordinates": [
          -40.3110957679999,
          -20.315487077999897
        ]
      },
      "properties": {
        "node_id": "capital:3205309",
        "name": "Vitória",
        "kind": "capital",
        "longitude": -40.3110957679999,
        "latitude": -20.315487077999897,
        "terrain_elevation_m": 1.0,
        "terrain_source": "Mapzen Terrain Tiles terrarium z8",
        "radome_height_agl_m": 15.0,
        "target_altitude_m": 3000.0,
        "coverage_radius_km": 242.268,
        "nearby_city_count": 192,
        "radius_status": "geometric_upper_bound_topographic_occlusion_pending"
      }
    },
    {
      "type": "Feature",
      "geometry": {
        "type": "Point",
        "coordinates": [
          -43.280021489198745,
          -21.780882439734036
        ]
      },
      "properties": {
        "node_id": "airport:-43.28002149:-21.78088244",
        "name": "Aeroporto Doutor Saulo Vilela",
        "kind": "airport",
        "longitude": -43.280021489198745,
        "latitude": -21.780882439734036,
        "terrain_elevation_m": 664.0,
        "terrain_source": "Mapzen Terrain Tiles terrarium z8",
        "radome_height_agl_m": 15.0,
        "target_altitude_m": 3000.0,
        "coverage_radius_km": 333.188,
        "nearby_city_count": 651,
        "radius_status": "geometric_upper_bound_topographic_occlusion_pending"
      }
    },
    {
      "type": "Feature",
      "geometry": {
        "type": "Point",
        "coordinates": [
          -46.49236897645827,
          -18.6707344363763
        ]
      },
      "properties": {
        "node_id": "airport:-46.49236898:-18.67073444",
        "name": "Aeroporto Pedro Pereira dos Santos",
        "kind": "airport",
        "longitude": -46.49236897645827,
        "latitude": -18.6707344363763,
        "terrain_elevation_m": 855.0,
        "terrain_source": "Mapzen Terrain Tiles terrarium z8",
        "radome_height_agl_m": 15.0,
        "target_altitude_m": 3000.0,
        "coverage_radius_km": 347.36,
        "nearby_city_count": 440,
        "radius_status": "geometric_upper_bound_topographic_occlusion_pending"
      }
    },
    {
      "type": "Feature",
      "geometry": {
        "type": "Point",
        "coordinates": [
          -47.901073985625466,
          -18.2198876750821
        ]
      },
      "properties": {
        "node_id": "airport:-47.90107399:-18.21988768",
        "name": "Aeroporto de Catalão João Netto de Campos",
        "kind": "airport",
        "longitude": -47.901073985625466,
        "latitude": -18.2198876750821,
        "terrain_elevation_m": 807.0,
        "terrain_source": "Mapzen Terrain Tiles terrarium z8",
        "radome_height_agl_m": 15.0,
        "target_altitude_m": 3000.0,
        "coverage_radius_km": 343.959,
        "nearby_city_count": 375,
        "radius_status": "geometric_upper_bound_topographic_occlusion_pending"
      }
    },
    {
      "type": "Feature",
      "geometry": {
        "type": "Point",
        "coordinates": [
          -53.50350243126815,
          -25.001981426314174
        ]
      },
      "properties": {
        "node_id": "airport:-53.50350243:-25.00198143",
        "name": "Aeroporto Adalberto Mendes da Silva ",
        "kind": "airport",
        "longitude": -53.50350243126815,
        "latitude": -25.001981426314174,
        "terrain_elevation_m": 734.0,
        "terrain_source": "Mapzen Terrain Tiles terrarium z8",
        "radome_height_agl_m": 15.0,
        "target_altitude_m": 3000.0,
        "coverage_radius_km": 338.589,
        "nearby_city_count": 573,
        "radius_status": "geometric_upper_bound_topographic_occlusion_pending"
      }
    },
    {
      "type": "Feature",
      "geometry": {
        "type": "Point",
        "coordinates": [
          -61.85015884202568,
          -10.876468596048147
        ]
      },
      "properties": {
        "node_id": "airport:-61.85015884:-10.87646860",
        "name": "Aeroporto Ji-Paraná ",
        "kind": "airport",
        "longitude": -61.85015884202568,
        "latitude": -10.876468596048147,
        "terrain_elevation_m": 175.0,
        "terrain_source": "Mapzen Terrain Tiles terrarium z8",
        "radome_height_agl_m": 15.0,
        "target_altitude_m": 3000.0,
        "coverage_radius_km": 282.597,
        "nearby_city_count": 46,
        "radius_status": "geometric_upper_bound_topographic_occlusion_pending"
      }
    },
    {
      "type": "Feature",
      "geometry": {
        "type": "Point",
        "coordinates": [
          -51.06725027107295,
          0.049969877441988
        ]
      },
      "properties": {
        "node_id": "airport:-51.06725027:0.04996988",
        "name": "Aeroporto Alberto Alcolumbre",
        "kind": "airport",
        "longitude": -51.06725027107295,
        "latitude": 0.049969877441988,
        "terrain_elevation_m": 17.0,
        "terrain_source": "Mapzen Terrain Tiles terrarium z8",
        "radome_height_agl_m": 15.0,
        "target_altitude_m": 3000.0,
        "coverage_radius_km": 249.098,
        "nearby_city_count": 25,
        "radius_status": "geometric_upper_bound_topographic_occlusion_pending"
      }
    },
    {
      "type": "Feature",
      "geometry": {
        "type": "Point",
        "coordinates": [
          -48.92682574407971,
          -16.35968948953338
        ]
      },
      "properties": {
        "node_id": "airport:-48.92682574:-16.35968949",
        "name": "Aeroporto Anápolis",
        "kind": "airport",
        "longitude": -48.92682574407971,
        "latitude": -16.35968948953338,
        "terrain_elevation_m": 1112.0,
        "terrain_source": "Mapzen Terrain Tiles terrarium z8",
        "radome_height_agl_m": 15.0,
        "target_altitude_m": 3000.0,
        "coverage_radius_km": 364.158,
        "nearby_city_count": 282,
        "radius_status": "geometric_upper_bound_topographic_occlusion_pending"
      }
    },
    {
      "type": "Feature",
      "geometry": {
        "type": "Point",
        "coordinates": [
          -51.49054052596232,
          -23.35615535752047
        ]
      },
      "properties": {
        "node_id": "airport:-51.49054053:-23.35615536",
        "name": "Aeroporto Arapongas",
        "kind": "airport",
        "longitude": -51.49054052596232,
        "latitude": -23.35615535752047,
        "terrain_elevation_m": 795.0,
        "terrain_source": "Mapzen Terrain Tiles terrarium z8",
        "radome_height_agl_m": 15.0,
        "target_altitude_m": 3000.0,
        "coverage_radius_km": 343.093,
        "nearby_city_count": 660,
        "radius_status": "geometric_upper_bound_topographic_occlusion_pending"
      }
    },
    {
      "type": "Feature",
      "geometry": {
        "type": "Point",
        "coordinates": [
          -68.4857995248337,
          -10.665757659894608
        ]
      },
      "properties": {
        "node_id": "airport:-68.48579952:-10.66575766",
        "name": "Aeroporto Xapuri ",
        "kind": "airport",
        "longitude": -68.4857995248337,
        "latitude": -10.665757659894608,
        "terrain_elevation_m": 183.0,
        "terrain_source": "Mapzen Terrain Tiles terrarium z8",
        "radome_height_agl_m": 15.0,
        "target_altitude_m": 3000.0,
        "coverage_radius_km": 283.78,
        "nearby_city_count": 15,
        "radius_status": "geometric_upper_bound_topographic_occlusion_pending"
      }
    },
    {
      "type": "Feature",
      "geometry": {
        "type": "Point",
        "coordinates": [
          -66.90013084818375,
          -4.876437637648781
        ]
      },
      "properties": {
        "node_id": "airport:-66.90013085:-4.87643764",
        "name": "Aeroporto Carauari",
        "kind": "airport",
        "longitude": -66.90013084818375,
        "latitude": -4.876437637648781,
        "terrain_elevation_m": 83.0,
        "terrain_source": "Mapzen Terrain Tiles terrarium z8",
        "radome_height_agl_m": 15.0,
        "target_altitude_m": 3000.0,
        "coverage_radius_km": 266.585,
        "nearby_city_count": 7,
        "radius_status": "geometric_upper_bound_topographic_occlusion_pending"
      }
    },
    {
      "type": "Feature",
      "geometry": {
        "type": "Point",
        "coordinates": [
          -60.69215437389652,
          2.841166841733541
        ]
      },
      "properties": {
        "node_id": "airport:-60.69215437:2.84116684",
        "name": "Aeroporto Atlas Brasil Catanhede",
        "kind": "airport",
        "longitude": -60.69215437389652,
        "latitude": 2.841166841733541,
        "terrain_elevation_m": 82.0,
        "terrain_source": "Mapzen Terrain Tiles terrarium z8",
        "radome_height_agl_m": 15.0,
        "target_altitude_m": 3000.0,
        "coverage_radius_km": 266.376,
        "nearby_city_count": 15,
        "radius_status": "geometric_upper_bound_topographic_occlusion_pending"
      }
    },
    {
      "type": "Feature",
      "geometry": {
        "type": "Point",
        "coordinates": [
          -35.24470807426003,
          -5.905000834765656
        ]
      },
      "properties": {
        "node_id": "airport:-35.24470807:-5.90500083",
        "name": "Aeroporto Internacional Augusto Severo",
        "kind": "airport",
        "longitude": -35.24470807426003,
        "latitude": -5.905000834765656,
        "terrain_elevation_m": 49.0,
        "terrain_source": "Mapzen Terrain Tiles terrarium z8",
        "radome_height_agl_m": 15.0,
        "target_altitude_m": 3000.0,
        "coverage_radius_km": 258.756,
        "nearby_city_count": 323,
        "radius_status": "geometric_upper_bound_topographic_occlusion_pending"
      }
    },
    {
      "type": "Feature",
      "geometry": {
        "type": "Point",
        "coordinates": [
          -45.000022968787576,
          -12.079069999280026
        ]
      },
      "properties": {
        "node_id": "airport:-45.00002297:-12.07907000",
        "name": "Aeroporto Barreiras",
        "kind": "airport",
        "longitude": -45.000022968787576,
        "latitude": -12.079069999280026,
        "terrain_elevation_m": 747.0,
        "terrain_source": "Mapzen Terrain Tiles terrarium z8",
        "radome_height_agl_m": 15.0,
        "target_altitude_m": 3000.0,
        "coverage_radius_km": 339.564,
        "nearby_city_count": 124,
        "radius_status": "geometric_upper_bound_topographic_occlusion_pending"
      }
    },
    {
      "type": "Feature",
      "geometry": {
        "type": "Point",
        "coordinates": [
          -70.77986449642061,
          -8.157813928616205
        ]
      },
      "properties": {
        "node_id": "airport:-70.77986450:-8.15781393",
        "name": "Aeroporto Tarauacá ",
        "kind": "airport",
        "longitude": -70.77986449642061,
        "latitude": -8.157813928616205,
        "terrain_elevation_m": 182.0,
        "terrain_source": "Mapzen Terrain Tiles terrarium z8",
        "radome_height_agl_m": 15.0,
        "target_altitude_m": 3000.0,
        "coverage_radius_km": 283.634,
        "nearby_city_count": 15,
        "radius_status": "geometric_upper_bound_topographic_occlusion_pending"
      }
    },
    {
      "type": "Feature",
      "geometry": {
        "type": "Point",
        "coordinates": [
          -56.45021227611688,
          -21.243591646053638
        ]
      },
      "properties": {
        "node_id": "airport:-56.45021228:-21.24359165",
        "name": "Aeroporto Bonito",
        "kind": "airport",
        "longitude": -56.45021227611688,
        "latitude": -21.243591646053638,
        "terrain_elevation_m": 329.0,
        "terrain_source": "Mapzen Terrain Tiles terrarium z8",
        "radome_height_agl_m": 15.0,
        "target_altitude_m": 3000.0,
        "coverage_radius_km": 302.23,
        "nearby_city_count": 45,
        "radius_status": "geometric_upper_bound_topographic_occlusion_pending"
      }
    },
    {
      "type": "Feature",
      "geometry": {
        "type": "Point",
        "coordinates": [
          -48.35803836328246,
          -10.2954747989671
        ]
      },
      "properties": {
        "node_id": "airport:-48.35803836:-10.29547480",
        "name": "Aeroporto Brigadeiro Lysias Rodrigues",
        "kind": "airport",
        "longitude": -48.35803836328246,
        "latitude": -10.2954747989671,
        "terrain_elevation_m": 229.0,
        "terrain_source": "Mapzen Terrain Tiles terrarium z8",
        "radome_height_agl_m": 15.0,
        "target_altitude_m": 3000.0,
        "coverage_radius_km": 290.166,
        "nearby_city_count": 92,
        "radius_status": "geometric_upper_bound_topographic_occlusion_pending"
      }
    },
    {
      "type": "Feature",
      "geometry": {
        "type": "Point",
        "coordinates": [
          -41.18884925493469,
          -20.836195347000675
        ]
      },
      "properties": {
        "node_id": "airport:-41.18884925:-20.83619535",
        "name": "Aeroporto Cachoeiro de Itapemirim",
        "kind": "airport",
        "longitude": -41.18884925493469,
        "latitude": -20.836195347000675,
        "terrain_elevation_m": 67.0,
        "terrain_source": "Mapzen Terrain Tiles terrarium z8",
        "radome_height_agl_m": 15.0,
        "target_altitude_m": 3000.0,
        "coverage_radius_km": 263.106,
        "nearby_city_count": 352,
        "radius_status": "geometric_upper_bound_topographic_occlusion_pending"
      }
    },
    {
      "type": "Feature",
      "geometry": {
        "type": "Point",
        "coordinates": [
          -61.117207167666244,
          1.850769113473502
        ]
      },
      "properties": {
        "node_id": "airport:-61.11720717:1.85076911",
        "name": "Aeroporto Caracaraí",
        "kind": "airport",
        "longitude": -61.117207167666244,
        "latitude": 1.850769113473502,
        "terrain_elevation_m": 53.0,
        "terrain_source": "Mapzen Terrain Tiles terrarium z8",
        "radome_height_agl_m": 15.0,
        "target_altitude_m": 3000.0,
        "coverage_radius_km": 259.77,
        "nearby_city_count": 12,
        "radius_status": "geometric_upper_bound_topographic_occlusion_pending"
      }
    },
    {
      "type": "Feature",
      "geometry": {
        "type": "Point",
        "coordinates": [
          -54.48857717676876,
          -25.597798173483206
        ]
      },
      "properties": {
        "node_id": "airport:-54.48857718:-25.59779817",
        "name": "Aeroporto Internacional Cataratas",
        "kind": "airport",
        "longitude": -54.48857717676876,
        "latitude": -25.597798173483206,
        "terrain_elevation_m": 229.0,
        "terrain_source": "Mapzen Terrain Tiles terrarium z8",
        "radome_height_agl_m": 15.0,
        "target_altitude_m": 3000.0,
        "coverage_radius_km": 290.166,
        "nearby_city_count": 344,
        "radius_status": "geometric_upper_bound_topographic_occlusion_pending"
      }
    },
    {
      "type": "Feature",
      "geometry": {
        "type": "Point",
        "coordinates": [
          -48.59714745235475,
          -20.58249530266522
        ]
      },
      "properties": {
        "node_id": "airport:-48.59714745:-20.58249530",
        "name": "Aeroporto Chafei Amsei",
        "kind": "airport",
        "longitude": -48.59714745235475,
        "latitude": -20.58249530266522,
        "terrain_elevation_m": 578.0,
        "terrain_source": "Mapzen Terrain Tiles terrarium z8",
        "radome_height_agl_m": 15.0,
        "target_altitude_m": 3000.0,
        "coverage_radius_km": 326.156,
        "nearby_city_count": 639,
        "radius_status": "geometric_upper_bound_topographic_occlusion_pending"
      }
    },
    {
      "type": "Feature",
      "geometry": {
        "type": "Point",
        "coordinates": [
          -54.11265076386022,
          -31.388031401923264
        ]
      },
      "properties": {
        "node_id": "airport:-54.11265076:-31.38803140",
        "name": "Aeroporto Comandante Gustavo Kraemer",
        "kind": "airport",
        "longitude": -54.11265076386022,
        "latitude": -31.388031401923264,
        "terrain_elevation_m": 184.0,
        "terrain_source": "Mapzen Terrain Tiles terrarium z8",
        "radome_height_agl_m": 15.0,
        "target_altitude_m": 3000.0,
        "coverage_radius_km": 283.927,
        "nearby_city_count": 114,
        "radius_status": "geometric_upper_bound_topographic_occlusion_pending"
      }
    },
    {
      "type": "Feature",
      "geometry": {
        "type": "Point",
        "coordinates": [
          -41.9867712196507,
          -18.89705729121592
        ]
      },
      "properties": {
        "node_id": "airport:-41.98677122:-18.89705729",
        "name": "Aeroporto Coronel Altino Machado",
        "kind": "airport",
        "longitude": -41.9867712196507,
        "latitude": -18.89705729121592,
        "terrain_elevation_m": 170.0,
        "terrain_source": "Mapzen Terrain Tiles terrarium z8",
        "radome_height_agl_m": 15.0,
        "target_altitude_m": 3000.0,
        "coverage_radius_km": 281.844,
        "nearby_city_count": 448,
        "radius_status": "geometric_upper_bound_topographic_occlusion_pending"
      }
    },
    {
      "type": "Feature",
      "geometry": {
        "type": "Point",
        "coordinates": [
          -57.663469517877694,
          -19.014044314353423
        ]
      },
      "properties": {
        "node_id": "airport:-57.66346952:-19.01404431",
        "name": "Aeroporto Corumbá",
        "kind": "airport",
        "longitude": -57.663469517877694,
        "latitude": -19.014044314353423,
        "terrain_elevation_m": 145.0,
        "terrain_source": "Mapzen Terrain Tiles terrarium z8",
        "radome_height_agl_m": 15.0,
        "target_altitude_m": 3000.0,
        "coverage_radius_km": 277.919,
        "nearby_city_count": 7,
        "radius_status": "geometric_upper_bound_topographic_occlusion_pending"
      }
    },
    {
      "type": "Feature",
      "geometry": {
        "type": "Point",
        "coordinates": [
          -72.77350692299245,
          -7.596153582510508
        ]
      },
      "properties": {
        "node_id": "airport:-72.77350692:-7.59615358",
        "name": "Aeroporto Internacional de Cruzeiro do Sul",
        "kind": "airport",
        "longitude": -72.77350692299245,
        "latitude": -7.596153582510508,
        "terrain_elevation_m": 200.0,
        "terrain_source": "Mapzen Terrain Tiles terrarium z8",
        "radome_height_agl_m": 15.0,
        "target_altitude_m": 3000.0,
        "coverage_radius_km": 286.219,
        "nearby_city_count": 10,
        "radius_status": "geometric_upper_bound_topographic_occlusion_pending"
      }
    },
    {
      "type": "Feature",
      "geometry": {
        "type": "Point",
        "coordinates": [
          -61.27921593502397,
          -5.809496613660382
        ]
      },
      "properties": {
        "node_id": "airport:-61.27921594:-5.80949661",
        "name": "Aeroporto Manicoré ",
        "kind": "airport",
        "longitude": -61.27921593502397,
        "latitude": -5.809496613660382,
        "terrain_elevation_m": 40.0,
        "terrain_source": "Mapzen Terrain Tiles terrarium z8",
        "radome_height_agl_m": 15.0,
        "target_altitude_m": 3000.0,
        "coverage_radius_km": 256.349,
        "nearby_city_count": 10,
        "radius_status": "geometric_upper_bound_topographic_occlusion_pending"
      }
    },
    {
      "type": "Feature",
      "geometry": {
        "type": "Point",
        "coordinates": [
          -48.24350685735499,
          -7.230691145432528
        ]
      },
      "properties": {
        "node_id": "airport:-48.24350686:-7.23069115",
        "name": "Aeroporto de Araguaína",
        "kind": "airport",
        "longitude": -48.24350685735499,
        "latitude": -7.230691145432528,
        "terrain_elevation_m": 235.0,
        "terrain_source": "Mapzen Terrain Tiles terrarium z8",
        "radome_height_agl_m": 15.0,
        "target_altitude_m": 3000.0,
        "coverage_radius_km": 290.953,
        "nearby_city_count": 130,
        "radius_status": "geometric_upper_bound_topographic_occlusion_pending"
      }
    },
    {
      "type": "Feature",
      "geometry": {
        "type": "Point",
        "coordinates": [
          -38.61847754343169,
          -6.880849816443079
        ]
      },
      "properties": {
        "node_id": "airport:-38.61847754:-6.88084982",
        "name": "Aeroporto de Cajazeiras",
        "kind": "airport",
        "longitude": -38.61847754343169,
        "latitude": -6.880849816443079,
        "terrain_elevation_m": 335.0,
        "terrain_source": "Mapzen Terrain Tiles terrarium z8",
        "radome_height_agl_m": 15.0,
        "target_altitude_m": 3000.0,
        "coverage_radius_km": 302.894,
        "nearby_city_count": 456,
        "radius_status": "geometric_upper_bound_topographic_occlusion_pending"
      }
    },
    {
      "type": "Feature",
      "geometry": {
        "type": "Point",
        "coordinates": [
          -63.89843237495105,
          -8.714395734548706
        ]
      },
      "properties": {
        "node_id": "airport:-63.89843237:-8.71439573",
        "name": "Aeroporto Internacional Governador Jorge Texeira de Oliveira",
        "kind": "airport",
        "longitude": -63.89843237495105,
        "latitude": -8.714395734548706,
        "terrain_elevation_m": 88.0,
        "terrain_source": "Mapzen Terrain Tiles terrarium z8",
        "radome_height_agl_m": 15.0,
        "target_altitude_m": 3000.0,
        "coverage_radius_km": 267.613,
        "nearby_city_count": 20,
        "radius_status": "geometric_upper_bound_topographic_occlusion_pending"
      }
    },
    {
      "type": "Feature",
      "geometry": {
        "type": "Point",
        "coordinates": [
          -54.669373660925615,
          -20.457584203585792
        ]
      },
      "properties": {
        "node_id": "airport:-54.66937366:-20.45758420",
        "name": "Aeroporto Internacional de Campo Grande",
        "kind": "airport",
        "longitude": -54.669373660925615,
        "latitude": -20.457584203585792,
        "terrain_elevation_m": 555.0,
        "terrain_source": "Mapzen Terrain Tiles terrarium z8",
        "radome_height_agl_m": 15.0,
        "target_altitude_m": 3000.0,
        "coverage_radius_km": 324.19,
        "nearby_city_count": 81,
        "radius_status": "geometric_upper_bound_topographic_occlusion_pending"
      }
    },
    {
      "type": "Feature",
      "geometry": {
        "type": "Point",
        "coordinates": [
          -46.65946676941492,
          -23.626165137091487
        ]
      },
      "properties": {
        "node_id": "airport:-46.65946677:-23.62616514",
        "name": "Aeroporto de Congonhas",
        "kind": "airport",
        "longitude": -46.65946676941492,
        "latitude": -23.626165137091487,
        "terrain_elevation_m": 787.0,
        "terrain_source": "Mapzen Terrain Tiles terrarium z8",
        "radome_height_agl_m": 15.0,
        "target_altitude_m": 3000.0,
        "coverage_radius_km": 342.512,
        "nearby_city_count": 596,
        "radius_status": "geometric_upper_bound_topographic_occlusion_pending"
      }
    },
    {
      "type": "Feature",
      "geometry": {
        "type": "Point",
        "coordinates": [
          -40.348241434664395,
          -2.90465283229252
        ]
      },
      "properties": {
        "node_id": "airport:-40.34824143:-2.90465283",
        "name": "Aeroporto de Jericoacoara",
        "kind": "airport",
        "longitude": -40.348241434664395,
        "latitude": -2.90465283229252,
        "terrain_elevation_m": 26.0,
        "terrain_source": "Mapzen Terrain Tiles terrarium z8",
        "radome_height_agl_m": 15.0,
        "target_altitude_m": 3000.0,
        "coverage_radius_km": 252.174,
        "nearby_city_count": 129,
        "radius_status": "geometric_upper_bound_topographic_occlusion_pending"
      }
    },
    {
      "type": "Feature",
      "geometry": {
        "type": "Point",
        "coordinates": [
          -37.361853161612125,
          -5.192681696359212
        ]
      },
      "properties": {
        "node_id": "airport:-37.36185316:-5.19268170",
        "name": "Aeroporto Dix-Sept Rosado",
        "kind": "airport",
        "longitude": -37.361853161612125,
        "latitude": -5.192681696359212,
        "terrain_elevation_m": 26.0,
        "terrain_source": "Mapzen Terrain Tiles terrarium z8",
        "radome_height_agl_m": 15.0,
        "target_altitude_m": 3000.0,
        "coverage_radius_km": 252.174,
        "nearby_city_count": 330,
        "radius_status": "geometric_upper_bound_topographic_occlusion_pending"
      }
    },
    {
      "type": "Feature",
      "geometry": {
        "type": "Point",
        "coordinates": [
          -52.33056761946964,
          -31.715931370282135
        ]
      },
      "properties": {
        "node_id": "airport:-52.33056762:-31.71593137",
        "name": "Aeroporto de Pelotas",
        "kind": "airport",
        "longitude": -52.33056761946964,
        "latitude": -31.715931370282135,
        "terrain_elevation_m": 18.0,
        "terrain_source": "Mapzen Terrain Tiles terrarium z8",
        "radome_height_agl_m": 15.0,
        "target_altitude_m": 3000.0,
        "coverage_radius_km": 249.459,
        "nearby_city_count": 96,
        "radius_status": "geometric_upper_bound_topographic_occlusion_pending"
      }
    },
    {
      "type": "Feature",
      "geometry": {
        "type": "Point",
        "coordinates": [
          -53.69353461994754,
          -29.709261960694743
        ]
      },
      "properties": {
        "node_id": "airport:-53.69353462:-29.70926196",
        "name": "Aeroporto de Santa Maria",
        "kind": "airport",
        "longitude": -53.69353461994754,
        "latitude": -29.709261960694743,
        "terrain_elevation_m": 89.0,
        "terrain_source": "Mapzen Terrain Tiles terrarium z8",
        "radome_height_agl_m": 15.0,
        "target_altitude_m": 3000.0,
        "coverage_radius_km": 267.816,
        "nearby_city_count": 405,
        "radius_status": "geometric_upper_bound_topographic_occlusion_pending"
      }
    },
    {
      "type": "Feature",
      "geometry": {
        "type": "Point",
        "coordinates": [
          -47.144233118657596,
          -23.00694470462168
        ]
      },
      "properties": {
        "node_id": "airport:-47.14423312:-23.00694470",
        "name": "Aeroporto Internacional de Viracopos",
        "kind": "airport",
        "longitude": -47.144233118657596,
        "latitude": -23.00694470462168,
        "terrain_elevation_m": 662.0,
        "terrain_source": "Mapzen Terrain Tiles terrarium z8",
        "radome_height_agl_m": 15.0,
        "target_altitude_m": 3000.0,
        "coverage_radius_km": 333.03,
        "nearby_city_count": 682,
        "radius_status": "geometric_upper_bound_topographic_occlusion_pending"
      }
    },
    {
      "type": "Feature",
      "geometry": {
        "type": "Point",
        "coordinates": [
          -38.334813283809474,
          -12.914354217035115
        ]
      },
      "properties": {
        "node_id": "airport:-38.33481328:-12.91435422",
        "name": "Aeroporto Internacional Deputado Luís Eduardo Magalhães",
        "kind": "airport",
        "longitude": -38.334813283809474,
        "latitude": -12.914354217035115,
        "terrain_elevation_m": 12.0,
        "terrain_source": "Mapzen Terrain Tiles terrarium z8",
        "radome_height_agl_m": 15.0,
        "target_altitude_m": 3000.0,
        "coverage_radius_km": 247.199,
        "nearby_city_count": 185,
        "radius_status": "geometric_upper_bound_topographic_occlusion_pending"
      }
    },
    {
      "type": "Feature",
      "geometry": {
        "type": "Point",
        "coordinates": [
          -60.04493225216448,
          -3.031718663826841
        ]
      },
      "properties": {
        "node_id": "airport:-60.04493225:-3.03171866",
        "name": "Aeroporto internacional Eduardo Gomes",
        "kind": "airport",
        "longitude": -60.04493225216448,
        "latitude": -3.031718663826841,
        "terrain_elevation_m": 69.0,
        "terrain_source": "Mapzen Terrain Tiles terrarium z8",
        "radome_height_agl_m": 15.0,
        "target_altitude_m": 3000.0,
        "coverage_radius_km": 263.558,
        "nearby_city_count": 25,
        "radius_status": "geometric_upper_bound_topographic_occlusion_pending"
      }
    },
    {
      "type": "Feature",
      "geometry": {
        "type": "Point",
        "coordinates": [
          -42.182896190329096,
          -20.263926237380137
        ]
      },
      "properties": {
        "node_id": "airport:-42.18289619:-20.26392624",
        "name": "Aeroporto Elias Breder",
        "kind": "airport",
        "longitude": -42.182896190329096,
        "latitude": -20.263926237380137,
        "terrain_elevation_m": 812.0,
        "terrain_source": "Mapzen Terrain Tiles terrarium z8",
        "radome_height_agl_m": 15.0,
        "target_altitude_m": 3000.0,
        "coverage_radius_km": 344.317,
        "nearby_city_count": 649,
        "radius_status": "geometric_upper_bound_topographic_occlusion_pending"
      }
    },
    {
      "type": "Feature",
      "geometry": {
        "type": "Point",
        "coordinates": [
          -46.56461878307286,
          -21.838497081484235
        ]
      },
      "properties": {
        "node_id": "airport:-46.56461878:-21.83849708",
        "name": "Aeroporto Embaixador Walther Moreira Salles",
        "kind": "airport",
        "longitude": -46.56461878307286,
        "latitude": -21.838497081484235,
        "terrain_elevation_m": 1254.0,
        "terrain_source": "Mapzen Terrain Tiles terrarium z8",
        "radome_height_agl_m": 15.0,
        "target_altitude_m": 3000.0,
        "coverage_radius_km": 372.618,
        "nearby_city_count": 907,
        "radius_status": "geometric_upper_bound_topographic_occlusion_pending"
      }
    },
    {
      "type": "Feature",
      "geometry": {
        "type": "Point",
        "coordinates": [
          -50.42585921914252,
          -21.137752570693785
        ]
      },
      "properties": {
        "node_id": "airport:-50.42585922:-21.13775257",
        "name": "Aeroporto Estadual Dario Guarita",
        "kind": "airport",
        "longitude": -50.42585921914252,
        "latitude": -21.137752570693785,
        "terrain_elevation_m": 410.0,
        "terrain_source": "Mapzen Terrain Tiles terrarium z8",
        "radome_height_agl_m": 15.0,
        "target_altitude_m": 3000.0,
        "coverage_radius_km": 310.755,
        "nearby_city_count": 546,
        "radius_status": "geometric_upper_bound_topographic_occlusion_pending"
      }
    },
    {
      "type": "Feature",
      "geometry": {
        "type": "Point",
        "coordinates": [
          -47.10763728730773,
          -22.861250549915823
        ]
      },
      "properties": {
        "node_id": "airport:-47.10763729:-22.86125055",
        "name": "Aeroporto Estadual de Campinas - Amarais",
        "kind": "airport",
        "longitude": -47.10763728730773,
        "latitude": -22.861250549915823,
        "terrain_elevation_m": 612.0,
        "terrain_source": "Mapzen Terrain Tiles terrarium z8",
        "radome_height_agl_m": 15.0,
        "target_altitude_m": 3000.0,
        "coverage_radius_km": 328.993,
        "nearby_city_count": 679,
        "radius_status": "geometric_upper_bound_topographic_occlusion_pending"
      }
    },
    {
      "type": "Feature",
      "geometry": {
        "type": "Point",
        "coordinates": [
          -46.94203887434518,
          -23.180292170076402
        ]
      },
      "properties": {
        "node_id": "airport:-46.94203887:-23.18029217",
        "name": "Aeroporto Estadual de Jundiaí",
        "kind": "airport",
        "longitude": -46.94203887434518,
        "latitude": -23.180292170076402,
        "terrain_elevation_m": 725.0,
        "terrain_source": "Mapzen Terrain Tiles terrarium z8",
        "radome_height_agl_m": 15.0,
        "target_altitude_m": 3000.0,
        "coverage_radius_km": 337.909,
        "nearby_city_count": 662,
        "radius_status": "geometric_upper_bound_topographic_occlusion_pending"
      }
    },
    {
      "type": "Feature",
      "geometry": {
        "type": "Point",
        "coordinates": [
          -47.839897951966286,
          -24.530249215735896
        ]
      },
      "properties": {
        "node_id": "airport:-47.83989795:-24.53024922",
        "name": "Aeroporto Estadual de Registro",
        "kind": "airport",
        "longitude": -47.839897951966286,
        "latitude": -24.530249215735896,
        "terrain_elevation_m": 29.0,
        "terrain_source": "Mapzen Terrain Tiles terrarium z8",
        "radome_height_agl_m": 15.0,
        "target_altitude_m": 3000.0,
        "coverage_radius_km": 253.122,
        "nearby_city_count": 294,
        "radius_status": "geometric_upper_bound_topographic_occlusion_pending"
      }
    },
    {
      "type": "Feature",
      "geometry": {
        "type": "Point",
        "coordinates": [
          -40.282193714775005,
          -20.26557422257857
        ]
      },
      "properties": {
        "node_id": "airport:-40.28219371:-20.26557422",
        "name": "Aeroporto Eurico de Aguiar Salles",
        "kind": "airport",
        "longitude": -40.282193714775005,
        "latitude": -20.26557422257857,
        "terrain_elevation_m": 1.0,
        "terrain_source": "Mapzen Terrain Tiles terrarium z8",
        "radome_height_agl_m": 15.0,
        "target_altitude_m": 3000.0,
        "coverage_radius_km": 242.268,
        "nearby_city_count": 189,
        "radius_status": "geometric_upper_bound_topographic_occlusion_pending"
      }
    },
    {
      "type": "Feature",
      "geometry": {
        "type": "Point",
        "coordinates": [
          -69.8824738888889,
          -6.639076666666649
        ]
      },
      "properties": {
        "node_id": "airport:-69.88247389:-6.63907667",
        "name": "Aeroporto Eirunepé",
        "kind": "airport",
        "longitude": -69.8824738888889,
        "latitude": -6.639076666666649,
        "terrain_elevation_m": 122.0,
        "terrain_source": "Mapzen Terrain Tiles terrarium z8",
        "radome_height_agl_m": 15.0,
        "target_altitude_m": 3000.0,
        "coverage_radius_km": 274.026,
        "nearby_city_count": 10,
        "radius_status": "geometric_upper_bound_topographic_occlusion_pending"
      }
    },
    {
      "type": "Feature",
      "geometry": {
        "type": "Point",
        "coordinates": [
          -50.27936149586206,
          -27.78183582354362
        ]
      },
      "properties": {
        "node_id": "airport:-50.27936150:-27.78183582",
        "name": "Aeroporto Federal Antônio Correia Pinto de Macedo",
        "kind": "airport",
        "longitude": -50.27936149586206,
        "latitude": -27.78183582354362,
        "terrain_elevation_m": 930.0,
        "terrain_source": "Mapzen Terrain Tiles terrarium z8",
        "radome_height_agl_m": 15.0,
        "target_altitude_m": 3000.0,
        "coverage_radius_km": 352.493,
        "nearby_city_count": 742,
        "radius_status": "geometric_upper_bound_topographic_occlusion_pending"
      }
    },
    {
      "type": "Feature",
      "geometry": {
        "type": "Point",
        "coordinates": [
          -50.95841377568476,
          -17.836804865238165
        ]
      },
      "properties": {
        "node_id": "airport:-50.95841378:-17.83680487",
        "name": "Aeroporto General Leite de Castro",
        "kind": "airport",
        "longitude": -50.95841377568476,
        "latitude": -17.836804865238165,
        "terrain_elevation_m": 757.0,
        "terrain_source": "Mapzen Terrain Tiles terrarium z8",
        "radome_height_agl_m": 15.0,
        "target_altitude_m": 3000.0,
        "coverage_radius_km": 340.308,
        "nearby_city_count": 288,
        "radius_status": "geometric_upper_bound_topographic_occlusion_pending"
      }
    },
    {
      "type": "Feature",
      "geometry": {
        "type": "Point",
        "coordinates": [
          -35.37259405904507,
          -5.7633558929649
        ]
      },
      "properties": {
        "node_id": "airport:-35.37259406:-5.76335589",
        "name": "Aeroporto Governador Aluizio Alves",
        "kind": "airport",
        "longitude": -35.37259405904507,
        "latitude": -5.7633558929649,
        "terrain_elevation_m": 84.0,
        "terrain_source": "Mapzen Terrain Tiles terrarium z8",
        "radome_height_agl_m": 15.0,
        "target_altitude_m": 3000.0,
        "coverage_radius_km": 266.793,
        "nearby_city_count": 332,
        "radius_status": "geometric_upper_bound_topographic_occlusion_pending"
      }
    },
    {
      "type": "Feature",
      "geometry": {
        "type": "Point",
        "coordinates": [
          -51.13785445571516,
          -23.32858557155968
        ]
      },
      "properties": {
        "node_id": "airport:-51.13785446:-23.32858557",
        "name": "Aeroporto Governador José Richa",
        "kind": "airport",
        "longitude": -51.13785445571516,
        "latitude": -23.32858557155968,
        "terrain_elevation_m": 571.0,
        "terrain_source": "Mapzen Terrain Tiles terrarium z8",
        "radome_height_agl_m": 15.0,
        "target_altitude_m": 3000.0,
        "coverage_radius_km": 325.561,
        "nearby_city_count": 625,
        "radius_status": "geometric_upper_bound_topographic_occlusion_pending"
      }
    },
    {
      "type": "Feature",
      "geometry": {
        "type": "Point",
        "coordinates": [
          -42.74905490579728,
          -14.208942052714082
        ]
      },
      "properties": {
        "node_id": "airport:-42.74905491:-14.20894205",
        "name": "Aeroporto Guanambi",
        "kind": "airport",
        "longitude": -42.74905490579728,
        "latitude": -14.208942052714082,
        "terrain_elevation_m": 551.0,
        "terrain_source": "Mapzen Terrain Tiles terrarium z8",
        "radome_height_agl_m": 15.0,
        "target_altitude_m": 3000.0,
        "coverage_radius_km": 323.844,
        "nearby_city_count": 235,
        "radius_status": "geometric_upper_bound_topographic_occlusion_pending"
      }
    },
    {
      "type": "Feature",
      "geometry": {
        "type": "Point",
        "coordinates": [
          -34.918217013510876,
          -8.131418097100651
        ]
      },
      "properties": {
        "node_id": "airport:-34.91821701:-8.13141810",
        "name": "Aeroporto Internacional  Guararapes Gilberto Freyre",
        "kind": "airport",
        "longitude": -34.918217013510876,
        "latitude": -8.131418097100651,
        "terrain_elevation_m": 14.0,
        "terrain_source": "Mapzen Terrain Tiles terrarium z8",
        "radome_height_agl_m": 15.0,
        "target_altitude_m": 3000.0,
        "coverage_radius_km": 247.978,
        "nearby_city_count": 351,
        "radius_status": "geometric_upper_bound_topographic_occlusion_pending"
      }
    },
    {
      "type": "Feature",
      "geometry": {
        "type": "Point",
        "coordinates": [
          -48.801860488186804,
          -26.22413926742278
        ]
      },
      "properties": {
        "node_id": "airport:-48.80186049:-26.22413927",
        "name": "Aeroporto Lauro Carneiro de Loyola",
        "kind": "airport",
        "longitude": -48.801860488186804,
        "latitude": -26.22413926742278,
        "terrain_elevation_m": 5.0,
        "terrain_source": "Mapzen Terrain Tiles terrarium z8",
        "radome_height_agl_m": 15.0,
        "target_altitude_m": 3000.0,
        "coverage_radius_km": 244.214,
        "nearby_city_count": 223,
        "radius_status": "geometric_upper_bound_topographic_occlusion_pending"
      }
    },
    {
      "type": "Feature",
      "geometry": {
        "type": "Point",
        "coordinates": [
          -48.545503691399055,
          -27.67399284599952
        ]
      },
      "properties": {
        "node_id": "airport:-48.54550369:-27.67399285",
        "name": "Aeroporto Internacional Hercílio Luz",
        "kind": "airport",
        "longitude": -48.545503691399055,
        "latitude": -27.67399284599952,
        "terrain_elevation_m": 6.0,
        "terrain_source": "Mapzen Terrain Tiles terrarium z8",
        "radome_height_agl_m": 15.0,
        "target_altitude_m": 3000.0,
        "coverage_radius_km": 244.67,
        "nearby_city_count": 191,
        "radius_status": "geometric_upper_bound_topographic_occlusion_pending"
      }
    },
    {
      "type": "Feature",
      "geometry": {
        "type": "Point",
        "coordinates": [
          -46.927466011228745,
          -16.35208001055938
        ]
      },
      "properties": {
        "node_id": "airport:-46.92746601:-16.35208001",
        "name": "Aeroporto Municipal de Unaí",
        "kind": "airport",
        "longitude": -46.927466011228745,
        "latitude": -16.35208001055938,
        "terrain_elevation_m": 612.0,
        "terrain_source": "Mapzen Terrain Tiles terrarium z8",
        "radome_height_agl_m": 15.0,
        "target_altitude_m": 3000.0,
        "coverage_radius_km": 328.993,
        "nearby_city_count": 221,
        "radius_status": "geometric_upper_bound_topographic_occlusion_pending"
      }
    },
    {
      "type": "Feature",
      "geometry": {
        "type": "Point",
        "coordinates": [
          -47.92067784288845,
          -15.869637856170106
        ]
      },
      "properties": {
        "node_id": "airport:-47.92067784:-15.86963786",
        "name": "Aeroporto Internacional Presidente Juscelino Kubitscheck",
        "kind": "airport",
        "longitude": -47.92067784288845,
        "latitude": -15.869637856170106,
        "terrain_elevation_m": 1061.0,
        "terrain_source": "Mapzen Terrain Tiles terrarium z8",
        "radome_height_agl_m": 15.0,
        "target_altitude_m": 3000.0,
        "coverage_radius_km": 360.991,
        "nearby_city_count": 278,
        "radius_status": "geometric_upper_bound_topographic_occlusion_pending"
      }
    },
    {
      "type": "Feature",
      "geometry": {
        "type": "Point",
        "coordinates": [
          -41.2741451189505,
          -12.486364214743256
        ]
      },
      "properties": {
        "node_id": "airport:-41.27414512:-12.48636421",
        "name": "Aeroporto Horácio de Mattos",
        "kind": "airport",
        "longitude": -41.2741451189505,
        "latitude": -12.486364214743256,
        "terrain_elevation_m": 487.0,
        "terrain_source": "Mapzen Terrain Tiles terrarium z8",
        "radome_height_agl_m": 15.0,
        "target_altitude_m": 3000.0,
        "coverage_radius_km": 318.133,
        "nearby_city_count": 295,
        "radius_status": "geometric_upper_bound_topographic_occlusion_pending"
      }
    },
    {
      "type": "Feature",
      "geometry": {
        "type": "Point",
        "coordinates": [
          -38.540494126450064,
          -3.77838595046257
        ]
      },
      "properties": {
        "node_id": "airport:-38.54049413:-3.77838595",
        "name": "Aeroporto Internacional Pinto Martins",
        "kind": "airport",
        "longitude": -38.540494126450064,
        "latitude": -3.77838595046257,
        "terrain_elevation_m": 23.0,
        "terrain_source": "Mapzen Terrain Tiles terrarium z8",
        "radome_height_agl_m": 15.0,
        "target_altitude_m": 3000.0,
        "coverage_radius_km": 251.19,
        "nearby_city_count": 133,
        "radius_status": "geometric_upper_bound_topographic_occlusion_pending"
      }
    },
    {
      "type": "Feature",
      "geometry": {
        "type": "Point",
        "coordinates": [
          -46.4816276762653,
          -23.426006084935736
        ]
      },
      "properties": {
        "node_id": "airport:-46.48162768:-23.42600608",
        "name": "Aeroporto Internacional  Governador André Franco Montoro",
        "kind": "airport",
        "longitude": -46.4816276762653,
        "latitude": -23.426006084935736,
        "terrain_elevation_m": 748.0,
        "terrain_source": "Mapzen Terrain Tiles terrarium z8",
        "radome_height_agl_m": 15.0,
        "target_altitude_m": 3000.0,
        "coverage_radius_km": 339.638,
        "nearby_city_count": 594,
        "radius_status": "geometric_upper_bound_topographic_occlusion_pending"
      }
    },
    {
      "type": "Feature",
      "geometry": {
        "type": "Point",
        "coordinates": [
          -35.79249635056293,
          -9.514261099010977
        ]
      },
      "properties": {
        "node_id": "airport:-35.79249635:-9.51426110",
        "name": "Aeroporto Internacional  Zumbi dos Palmares",
        "kind": "airport",
        "longitude": -35.79249635056293,
        "latitude": -9.514261099010977,
        "terrain_elevation_m": 117.0,
        "terrain_source": "Mapzen Terrain Tiles terrarium z8",
        "radome_height_agl_m": 15.0,
        "target_altitude_m": 3000.0,
        "coverage_radius_km": 273.137,
        "nearby_city_count": 376,
        "radius_status": "geometric_upper_bound_topographic_occlusion_pending"
      }
    },
    {
      "type": "Feature",
      "geometry": {
        "type": "Point",
        "coordinates": [
          -41.72978929219793,
          -2.89485620328918
        ]
      },
      "properties": {
        "node_id": "airport:-41.72978929:-2.89485620",
        "name": "Aeroporto Internacional de Parnáiba  Prefeito Doutor João Silva Filho",
        "kind": "airport",
        "longitude": -41.72978929219793,
        "latitude": -2.89485620328918,
        "terrain_elevation_m": 4.0,
        "terrain_source": "Mapzen Terrain Tiles terrarium z8",
        "radome_height_agl_m": 15.0,
        "target_altitude_m": 3000.0,
        "coverage_radius_km": 243.748,
        "nearby_city_count": 119,
        "radius_status": "geometric_upper_bound_topographic_occlusion_pending"
      }
    },
    {
      "type": "Feature",
      "geometry": {
        "type": "Point",
        "coordinates": [
          -39.03184712652405,
          -14.814095735725314
        ]
      },
      "properties": {
        "node_id": "airport:-39.03184713:-14.81409574",
        "name": "Aeroporto Jorge Amado",
        "kind": "airport",
        "longitude": -39.03184712652405,
        "latitude": -14.814095735725314,
        "terrain_elevation_m": 7.0,
        "terrain_source": "Mapzen Terrain Tiles terrarium z8",
        "radome_height_agl_m": 15.0,
        "target_altitude_m": 3000.0,
        "coverage_radius_km": 245.114,
        "nearby_city_count": 143,
        "radius_status": "geometric_upper_bound_topographic_occlusion_pending"
      }
    },
    {
      "type": "Feature",
      "geometry": {
        "type": "Point",
        "coordinates": [
          -53.6962654117052,
          -24.68503489374331
        ]
      },
      "properties": {
        "node_id": "airport:-53.69626541:-24.68503489",
        "name": "Aeroporto Luís Dal Canalle Filho",
        "kind": "airport",
        "longitude": -53.6962654117052,
        "latitude": -24.68503489374331,
        "terrain_elevation_m": 556.0,
        "terrain_source": "Mapzen Terrain Tiles terrarium z8",
        "radome_height_agl_m": 15.0,
        "target_altitude_m": 3000.0,
        "coverage_radius_km": 324.276,
        "nearby_city_count": 459,
        "radius_status": "geometric_upper_bound_topographic_occlusion_pending"
      }
    },
    {
      "type": "Feature",
      "geometry": {
        "type": "Point",
        "coordinates": [
          -41.763193734941225,
          -22.34129020376968
        ]
      },
      "properties": {
        "node_id": "airport:-41.76319373:-22.34129020",
        "name": "Aeroporto Macaé",
        "kind": "airport",
        "longitude": -41.763193734941225,
        "latitude": -22.34129020376968,
        "terrain_elevation_m": 6.0,
        "terrain_source": "Mapzen Terrain Tiles terrarium z8",
        "radome_height_agl_m": 15.0,
        "target_altitude_m": 3000.0,
        "coverage_radius_km": 244.67,
        "nearby_city_count": 244,
        "radius_status": "geometric_upper_bound_topographic_occlusion_pending"
      }
    },
    {
      "type": "Feature",
      "geometry": {
        "type": "Point",
        "coordinates": [
          -44.236289570937664,
          -2.583508071462564
        ]
      },
      "properties": {
        "node_id": "airport:-44.23628957:-2.58350807",
        "name": "Aeroporto Internacional Marechal Cunha Machado",
        "kind": "airport",
        "longitude": -44.236289570937664,
        "latitude": -2.583508071462564,
        "terrain_elevation_m": 40.0,
        "terrain_source": "Mapzen Terrain Tiles terrarium z8",
        "radome_height_agl_m": 15.0,
        "target_altitude_m": 3000.0,
        "coverage_radius_km": 256.349,
        "nearby_city_count": 145,
        "radius_status": "geometric_upper_bound_topographic_occlusion_pending"
      }
    },
    {
      "type": "Feature",
      "geometry": {
        "type": "Point",
        "coordinates": [
          -56.12028565108113,
          -15.651024358921442
        ]
      },
      "properties": {
        "node_id": "airport:-56.12028565:-15.65102436",
        "name": "Aeroporto Internacional Marechal Rondon",
        "kind": "airport",
        "longitude": -56.12028565108113,
        "latitude": -15.651024358921442,
        "terrain_elevation_m": 186.0,
        "terrain_source": "Mapzen Terrain Tiles terrarium z8",
        "radome_height_agl_m": 15.0,
        "target_altitude_m": 3000.0,
        "coverage_radius_km": 284.218,
        "nearby_city_count": 56,
        "radius_status": "geometric_upper_bound_topographic_occlusion_pending"
      }
    },
    {
      "type": "Feature",
      "geometry": {
        "type": "Point",
        "coordinates": [
          -40.06960130105029,
          -19.357606411746996
        ]
      },
      "properties": {
        "node_id": "airport:-40.06960130:-19.35760641",
        "name": "Aeroporto Municipal de Linhares",
        "kind": "airport",
        "longitude": -40.06960130105029,
        "latitude": -19.357606411746996,
        "terrain_elevation_m": 37.0,
        "terrain_source": "Mapzen Terrain Tiles terrarium z8",
        "radome_height_agl_m": 15.0,
        "target_altitude_m": 3000.0,
        "coverage_radius_km": 255.504,
        "nearby_city_count": 190,
        "radius_status": "geometric_upper_bound_topographic_occlusion_pending"
      }
    },
    {
      "type": "Feature",
      "geometry": {
        "type": "Point",
        "coordinates": [
          -48.61473627190176,
          -17.725398507529952
        ]
      },
      "properties": {
        "node_id": "airport:-48.61473627:-17.72539851",
        "name": "Aeroporto Nelson Rodrigues Guimarães",
        "kind": "airport",
        "longitude": -48.61473627190176,
        "latitude": -17.725398507529952,
        "terrain_elevation_m": 709.0,
        "terrain_source": "Mapzen Terrain Tiles terrarium z8",
        "radome_height_agl_m": 15.0,
        "target_altitude_m": 3000.0,
        "coverage_radius_km": 336.69,
        "nearby_city_count": 311,
        "radius_status": "geometric_upper_bound_topographic_occlusion_pending"
      }
    },
    {
      "type": "Feature",
      "geometry": {
        "type": "Point",
        "coordinates": [
          -39.27224470033127,
          -7.215174674412705
        ]
      },
      "properties": {
        "node_id": "airport:-39.27224470:-7.21517467",
        "name": "Aeroporto Orlando Bezerra de Menezes",
        "kind": "airport",
        "longitude": -39.27224470033127,
        "latitude": -7.215174674412705,
        "terrain_elevation_m": 405.0,
        "terrain_source": "Mapzen Terrain Tiles terrarium z8",
        "radome_height_agl_m": 15.0,
        "target_altitude_m": 3000.0,
        "coverage_radius_km": 310.254,
        "nearby_city_count": 413,
        "radius_status": "geometric_upper_bound_topographic_occlusion_pending"
      }
    },
    {
      "type": "Feature",
      "geometry": {
        "type": "Point",
        "coordinates": [
          -53.0668059730785,
          -26.0591613304212
        ]
      },
      "properties": {
        "node_id": "airport:-53.06680597:-26.05916133",
        "name": "Aeroporto Paulo Abdala- Francisco Beltrão",
        "kind": "airport",
        "longitude": -53.0668059730785,
        "latitude": -26.0591613304212,
        "terrain_elevation_m": 645.0,
        "terrain_source": "Mapzen Terrain Tiles terrarium z8",
        "radome_height_agl_m": 15.0,
        "target_altitude_m": 3000.0,
        "coverage_radius_km": 331.674,
        "nearby_city_count": 642,
        "radius_status": "geometric_upper_bound_topographic_occlusion_pending"
      }
    },
    {
      "type": "Feature",
      "geometry": {
        "type": "Point",
        "coordinates": [
          -56.105152577490266,
          -9.87233595606331
        ]
      },
      "properties": {
        "node_id": "airport:-56.10515258:-9.87233596",
        "name": "Aeroporto Piloto Osvaldo Marques Dias",
        "kind": "airport",
        "longitude": -56.105152577490266,
        "latitude": -9.87233595606331,
        "terrain_elevation_m": 286.0,
        "terrain_source": "Mapzen Terrain Tiles terrarium z8",
        "radome_height_agl_m": 15.0,
        "target_altitude_m": 3000.0,
        "coverage_radius_km": 297.292,
        "nearby_city_count": 30,
        "radius_status": "geometric_upper_bound_topographic_occlusion_pending"
      }
    },
    {
      "type": "Feature",
      "geometry": {
        "type": "Point",
        "coordinates": [
          -67.8971524494631,
          -9.866566882022735
        ]
      },
      "properties": {
        "node_id": "airport:-67.89715245:-9.86656688",
        "name": "Aeroporto Plácido de Castro",
        "kind": "airport",
        "longitude": -67.8971524494631,
        "latitude": -9.866566882022735,
        "terrain_elevation_m": 186.0,
        "terrain_source": "Mapzen Terrain Tiles terrarium z8",
        "radome_height_agl_m": 15.0,
        "target_altitude_m": 3000.0,
        "coverage_radius_km": 284.218,
        "nearby_city_count": 15,
        "radius_status": "geometric_upper_bound_topographic_occlusion_pending"
      }
    },
    {
      "type": "Feature",
      "geometry": {
        "type": "Point",
        "coordinates": [
          -39.081952337082,
          -16.44071947338993
        ]
      },
      "properties": {
        "node_id": "airport:-39.08195234:-16.44071947",
        "name": "Aeroporto Porto Seguro",
        "kind": "airport",
        "longitude": -39.081952337082,
        "latitude": -16.44071947338993,
        "terrain_elevation_m": 50.0,
        "terrain_source": "Mapzen Terrain Tiles terrarium z8",
        "radome_height_agl_m": 15.0,
        "target_altitude_m": 3000.0,
        "coverage_radius_km": 259.012,
        "nearby_city_count": 110,
        "radius_status": "geometric_upper_bound_topographic_occlusion_pending"
      }
    },
    {
      "type": "Feature",
      "geometry": {
        "type": "Point",
        "coordinates": [
          -47.45614366276173,
          -5.531821027147499
        ]
      },
      "properties": {
        "node_id": "airport:-47.45614366:-5.53182103",
        "name": "Aeroporto Prefeito Renato Moreira",
        "kind": "airport",
        "longitude": -47.45614366276173,
        "latitude": -5.531821027147499,
        "terrain_elevation_m": 131.0,
        "terrain_source": "Mapzen Terrain Tiles terrarium z8",
        "radome_height_agl_m": 15.0,
        "target_altitude_m": 3000.0,
        "coverage_radius_km": 275.585,
        "nearby_city_count": 104,
        "radius_status": "geometric_upper_bound_topographic_occlusion_pending"
      }
    },
    {
      "type": "Feature",
      "geometry": {
        "type": "Point",
        "coordinates": [
          -52.01211592226381,
          -23.47971250112527
        ]
      },
      "properties": {
        "node_id": "airport:-52.01211592:-23.47971250",
        "name": "Aeroporto Regional de Maringá - Silvio Name Júnior",
        "kind": "airport",
        "longitude": -52.01211592226381,
        "latitude": -23.47971250112527,
        "terrain_elevation_m": 547.0,
        "terrain_source": "Mapzen Terrain Tiles terrarium z8",
        "radome_height_agl_m": 15.0,
        "target_altitude_m": 3000.0,
        "coverage_radius_km": 323.497,
        "nearby_city_count": 550,
        "radius_status": "geometric_upper_bound_topographic_occlusion_pending"
      }
    },
    {
      "type": "Feature",
      "geometry": {
        "type": "Point",
        "coordinates": [
          -51.18689424881523,
          -29.194879289812224
        ]
      },
      "properties": {
        "node_id": "airport:-51.18689425:-29.19487929",
        "name": "Aeroporto Regional Hugo Cantergiani",
        "kind": "airport",
        "longitude": -51.18689424881523,
        "latitude": -29.194879289812224,
        "terrain_elevation_m": 748.0,
        "terrain_source": "Mapzen Terrain Tiles terrarium z8",
        "radome_height_agl_m": 15.0,
        "target_altitude_m": 3000.0,
        "coverage_radius_km": 339.638,
        "nearby_city_count": 678,
        "radius_status": "geometric_upper_bound_topographic_occlusion_pending"
      }
    },
    {
      "type": "Feature",
      "geometry": {
        "type": "Point",
        "coordinates": [
          -57.03565401869715,
          -29.78394922614632
        ]
      },
      "properties": {
        "node_id": "airport:-57.03565402:-29.78394923",
        "name": "Aeroporto Rubem Berta",
        "kind": "airport",
        "longitude": -57.03565401869715,
        "latitude": -29.78394922614632,
        "terrain_elevation_m": 75.0,
        "terrain_source": "Mapzen Terrain Tiles terrarium z8",
        "radome_height_agl_m": 15.0,
        "target_altitude_m": 3000.0,
        "coverage_radius_km": 264.884,
        "nearby_city_count": 28,
        "radius_status": "geometric_upper_bound_topographic_occlusion_pending"
      }
    },
    {
      "type": "Feature",
      "geometry": {
        "type": "Point",
        "coordinates": [
          -37.07228063300868,
          -10.986982353128305
        ]
      },
      "properties": {
        "node_id": "airport:-37.07228063:-10.98698235",
        "name": "Aeroporto Santa Maria",
        "kind": "airport",
        "longitude": -37.07228063300868,
        "latitude": -10.986982353128305,
        "terrain_elevation_m": 9.0,
        "terrain_source": "Mapzen Terrain Tiles terrarium z8",
        "radome_height_agl_m": 15.0,
        "target_altitude_m": 3000.0,
        "coverage_radius_km": 245.974,
        "nearby_city_count": 241,
        "radius_status": "geometric_upper_bound_topographic_occlusion_pending"
      }
    },
    {
      "type": "Feature",
      "geometry": {
        "type": "Point",
        "coordinates": [
          -43.166672568592276,
          -22.91225115301383
        ]
      },
      "properties": {
        "node_id": "airport:-43.16667257:-22.91225115",
        "name": "Aeroporto Santos Dumont",
        "kind": "airport",
        "longitude": -43.166672568592276,
        "latitude": -22.91225115301383,
        "terrain_elevation_m": 10.0,
        "terrain_source": "Mapzen Terrain Tiles terrarium z8",
        "radome_height_agl_m": 15.0,
        "target_altitude_m": 3000.0,
        "coverage_radius_km": 246.39,
        "nearby_city_count": 267,
        "radius_status": "geometric_upper_bound_topographic_occlusion_pending"
      }
    },
    {
      "type": "Feature",
      "geometry": {
        "type": "Point",
        "coordinates": [
          -40.56604408836831,
          -9.366513969707185
        ]
      },
      "properties": {
        "node_id": "airport:-40.56604409:-9.36651397",
        "name": "Aeroporto de Petrolina Senador Nilo Coelho",
        "kind": "airport",
        "longitude": -40.56604408836831,
        "latitude": -9.366513969707185,
        "terrain_elevation_m": 387.0,
        "terrain_source": "Mapzen Terrain Tiles terrarium z8",
        "radome_height_agl_m": 15.0,
        "target_altitude_m": 3000.0,
        "coverage_radius_km": 308.424,
        "nearby_city_count": 247,
        "radius_status": "geometric_upper_bound_topographic_occlusion_pending"
      }
    },
    {
      "type": "Feature",
      "geometry": {
        "type": "Point",
        "coordinates": [
          -42.82068411118768,
          -5.064070944685461
        ]
      },
      "properties": {
        "node_id": "airport:-42.82068411:-5.06407094",
        "name": "Aeroporto de Teresina Senador Petrônio Portela",
        "kind": "airport",
        "longitude": -42.82068411118768,
        "latitude": -5.064070944685461,
        "terrain_elevation_m": 66.0,
        "terrain_source": "Mapzen Terrain Tiles terrarium z8",
        "radome_height_agl_m": 15.0,
        "target_altitude_m": 3000.0,
        "coverage_radius_km": 262.877,
        "nearby_city_count": 219,
        "radius_status": "geometric_upper_bound_topographic_occlusion_pending"
      }
    },
    {
      "type": "Feature",
      "geometry": {
        "type": "Point",
        "coordinates": [
          -69.93923226646449,
          -4.25040680165655
        ]
      },
      "properties": {
        "node_id": "airport:-69.93923227:-4.25040680",
        "name": "Aeroporto Tabatinga",
        "kind": "airport",
        "longitude": -69.93923226646449,
        "latitude": -4.25040680165655,
        "terrain_elevation_m": 80.0,
        "terrain_source": "Mapzen Terrain Tiles terrarium z8",
        "radome_height_agl_m": 15.0,
        "target_altitude_m": 3000.0,
        "coverage_radius_km": 265.956,
        "nearby_city_count": 6,
        "radius_status": "geometric_upper_bound_topographic_occlusion_pending"
      }
    },
    {
      "type": "Feature",
      "geometry": {
        "type": "Point",
        "coordinates": [
          -39.66911061241935,
          -17.522979395459714
        ]
      },
      "properties": {
        "node_id": "airport:-39.66911061:-17.52297940",
        "name": "Aeroporto Teixeira Freitas",
        "kind": "airport",
        "longitude": -39.66911061241935,
        "latitude": -17.522979395459714,
        "terrain_elevation_m": 85.0,
        "terrain_source": "Mapzen Terrain Tiles terrarium z8",
        "radome_height_agl_m": 15.0,
        "target_altitude_m": 3000.0,
        "coverage_radius_km": 266.999,
        "nearby_city_count": 143,
        "radius_status": "geometric_upper_bound_topographic_occlusion_pending"
      }
    },
    {
      "type": "Feature",
      "geometry": {
        "type": "Point",
        "coordinates": [
          -48.479600343723504,
          -1.38975785929759
        ]
      },
      "properties": {
        "node_id": "airport:-48.47960034:-1.38975786",
        "name": "Aeroporto Internacional  Val de Cans",
        "kind": "airport",
        "longitude": -48.479600343723504,
        "latitude": -1.38975785929759,
        "terrain_elevation_m": 6.0,
        "terrain_source": "Mapzen Terrain Tiles terrarium z8",
        "radome_height_agl_m": 15.0,
        "target_altitude_m": 3000.0,
        "coverage_radius_km": 244.67,
        "nearby_city_count": 72,
        "radius_status": "geometric_upper_bound_topographic_occlusion_pending"
      }
    },
    {
      "type": "Feature",
      "geometry": {
        "type": "Point",
        "coordinates": [
          -38.99141141679912,
          -13.302808998531418
        ]
      },
      "properties": {
        "node_id": "airport:-38.99141142:-13.30280900",
        "name": "Aeroporto Valença",
        "kind": "airport",
        "longitude": -38.99141141679912,
        "latitude": -13.302808998531418,
        "terrain_elevation_m": 5.0,
        "terrain_source": "Mapzen Terrain Tiles terrarium z8",
        "radome_height_agl_m": 15.0,
        "target_altitude_m": 3000.0,
        "coverage_radius_km": 244.214,
        "nearby_city_count": 202,
        "radius_status": "geometric_upper_bound_topographic_occlusion_pending"
      }
    },
    {
      "type": "Feature",
      "geometry": {
        "type": "Point",
        "coordinates": [
          -40.862319289616686,
          -14.866599653550905
        ]
      },
      "properties": {
        "node_id": "airport:-40.86231929:-14.86659965",
        "name": "Aeroporto Vitória da Conquista",
        "kind": "airport",
        "longitude": -40.862319289616686,
        "latitude": -14.866599653550905,
        "terrain_elevation_m": 912.0,
        "terrain_source": "Mapzen Terrain Tiles terrarium z8",
        "radome_height_agl_m": 15.0,
        "target_altitude_m": 3000.0,
        "coverage_radius_km": 351.28,
        "nearby_city_count": 339,
        "radius_status": "geometric_upper_bound_topographic_occlusion_pending"
      }
    },
    {
      "type": "Feature",
      "geometry": {
        "type": "Point",
        "coordinates": [
          -43.24567932093077,
          -22.813835369728046
        ]
      },
      "properties": {
        "node_id": "airport:-43.24567932:-22.81383537",
        "name": "Aeroporto Internacional  Antonio Carlos Jobim - Galeão",
        "kind": "airport",
        "longitude": -43.24567932093077,
        "latitude": -22.813835369728046,
        "terrain_elevation_m": 15.0,
        "terrain_source": "Mapzen Terrain Tiles terrarium z8",
        "radome_height_agl_m": 15.0,
        "target_altitude_m": 3000.0,
        "coverage_radius_km": 248.357,
        "nearby_city_count": 302,
        "radius_status": "geometric_upper_bound_topographic_occlusion_pending"
      }
    },
    {
      "type": "Feature",
      "geometry": {
        "type": "Point",
        "coordinates": [
          -42.07750393822237,
          -22.92523879678355
        ]
      },
      "properties": {
        "node_id": "airport:-42.07750394:-22.92523880",
        "name": "Aeroporto  Cabo Frio",
        "kind": "airport",
        "longitude": -42.07750393822237,
        "latitude": -22.92523879678355,
        "terrain_elevation_m": 6.0,
        "terrain_source": "Mapzen Terrain Tiles terrarium z8",
        "radome_height_agl_m": 15.0,
        "target_altitude_m": 3000.0,
        "coverage_radius_km": 244.67,
        "nearby_city_count": 181,
        "radius_status": "geometric_upper_bound_topographic_occlusion_pending"
      }
    },
    {
      "type": "Feature",
      "geometry": {
        "type": "Point",
        "coordinates": [
          -54.78636187746423,
          -2.424776038313524
        ]
      },
      "properties": {
        "node_id": "airport:-54.78636188:-2.42477604",
        "name": "Aeroporto Internacional Maestro Wilson Fonseca",
        "kind": "airport",
        "longitude": -54.78636187746423,
        "latitude": -2.424776038313524,
        "terrain_elevation_m": 59.0,
        "terrain_source": "Mapzen Terrain Tiles terrarium z8",
        "radome_height_agl_m": 15.0,
        "target_altitude_m": 3000.0,
        "coverage_radius_km": 261.238,
        "nearby_city_count": 21,
        "radius_status": "geometric_upper_bound_topographic_occlusion_pending"
      }
    },
    {
      "type": "Feature",
      "geometry": {
        "type": "Point",
        "coordinates": [
          -43.81973882334952,
          -16.705002390924342
        ]
      },
      "properties": {
        "node_id": "airport:-43.81973882:-16.70500239",
        "name": "Aeroporto Mário Ribeiro",
        "kind": "airport",
        "longitude": -43.81973882334952,
        "latitude": -16.705002390924342,
        "terrain_elevation_m": 665.0,
        "terrain_source": "Mapzen Terrain Tiles terrarium z8",
        "radome_height_agl_m": 15.0,
        "target_altitude_m": 3000.0,
        "coverage_radius_km": 333.267,
        "nearby_city_count": 297,
        "radius_status": "geometric_upper_bound_topographic_occlusion_pending"
      }
    },
    {
      "type": "Feature",
      "geometry": {
        "type": "Point",
        "coordinates": [
          -48.64876141280077,
          -26.88036633953073
        ]
      },
      "properties": {
        "node_id": "airport:-48.64876141:-26.88036634",
        "name": "Aeroporto Internacional Navegantes Ministro Victor Konder",
        "kind": "airport",
        "longitude": -48.64876141280077,
        "latitude": -26.88036633953073,
        "terrain_elevation_m": 5.0,
        "terrain_source": "Mapzen Terrain Tiles terrarium z8",
        "radome_height_agl_m": 15.0,
        "target_altitude_m": 3000.0,
        "coverage_radius_km": 244.214,
        "nearby_city_count": 208,
        "radius_status": "geometric_upper_bound_topographic_occlusion_pending"
      }
    },
    {
      "type": "Feature",
      "geometry": {
        "type": "Point",
        "coordinates": [
          -47.77658183173642,
          -21.13915193505769
        ]
      },
      "properties": {
        "node_id": "airport:-47.77658183:-21.13915194",
        "name": "Aeroporto Leite Lopes",
        "kind": "airport",
        "longitude": -47.77658183173642,
        "latitude": -21.13915193505769,
        "terrain_elevation_m": 554.0,
        "terrain_source": "Mapzen Terrain Tiles terrarium z8",
        "radome_height_agl_m": 15.0,
        "target_altitude_m": 3000.0,
        "coverage_radius_km": 324.103,
        "nearby_city_count": 753,
        "radius_status": "geometric_upper_bound_topographic_occlusion_pending"
      }
    },
    {
      "type": "Feature",
      "geometry": {
        "type": "Point",
        "coordinates": [
          -49.17317396034981,
          -25.53622754579818
        ]
      },
      "properties": {
        "node_id": "airport:-49.17317396:-25.53622755",
        "name": "Aeroporto Internacional Afonso Pena",
        "kind": "airport",
        "longitude": -49.17317396034981,
        "latitude": -25.53622754579818,
        "terrain_elevation_m": 913.0,
        "terrain_source": "Mapzen Terrain Tiles terrarium z8",
        "radome_height_agl_m": 15.0,
        "target_altitude_m": 3000.0,
        "coverage_radius_km": 351.348,
        "nearby_city_count": 584,
        "radius_status": "geometric_upper_bound_topographic_occlusion_pending"
      }
    },
    {
      "type": "Feature",
      "geometry": {
        "type": "Point",
        "coordinates": [
          -43.955412743176986,
          -19.851540962803416
        ]
      },
      "properties": {
        "node_id": "airport:-43.95541274:-19.85154096",
        "name": "Aeroporto Pampulha Carlos Drummond de Andrade",
        "kind": "airport",
        "longitude": -43.955412743176986,
        "latitude": -19.851540962803416,
        "terrain_elevation_m": 788.0,
        "terrain_source": "Mapzen Terrain Tiles terrarium z8",
        "radome_height_agl_m": 15.0,
        "target_altitude_m": 3000.0,
        "coverage_radius_km": 342.585,
        "nearby_city_count": 749,
        "radius_status": "geometric_upper_bound_topographic_occlusion_pending"
      }
    },
    {
      "type": "Feature",
      "geometry": {
        "type": "Point",
        "coordinates": [
          -43.96448131353005,
          -19.630816597746694
        ]
      },
      "properties": {
        "node_id": "airport:-43.96448131:-19.63081660",
        "name": "Aeroporto Internacional Tancredo Neves",
        "kind": "airport",
        "longitude": -43.96448131353005,
        "latitude": -19.630816597746694,
        "terrain_elevation_m": 830.0,
        "terrain_source": "Mapzen Terrain Tiles terrarium z8",
        "radome_height_agl_m": 15.0,
        "target_altitude_m": 3000.0,
        "coverage_radius_km": 345.601,
        "nearby_city_count": 733,
        "radius_status": "geometric_upper_bound_topographic_occlusion_pending"
      }
    },
    {
      "type": "Feature",
      "geometry": {
        "type": "Point",
        "coordinates": [
          -34.94885448597934,
          -7.146106374970416
        ]
      },
      "properties": {
        "node_id": "airport:-34.94885449:-7.14610637",
        "name": "Aeroporto Internacional Presidente Castro Pinto",
        "kind": "airport",
        "longitude": -34.94885448597934,
        "latitude": -7.146106374970416,
        "terrain_elevation_m": 65.0,
        "terrain_source": "Mapzen Terrain Tiles terrarium z8",
        "radome_height_agl_m": 15.0,
        "target_altitude_m": 3000.0,
        "coverage_radius_km": 262.648,
        "nearby_city_count": 387,
        "radius_status": "geometric_upper_bound_topographic_occlusion_pending"
      }
    },
    {
      "type": "Feature",
      "geometry": {
        "type": "Point",
        "coordinates": [
          -49.214376633506134,
          -16.629396810110368
        ]
      },
      "properties": {
        "node_id": "airport:-49.21437663:-16.62939681",
        "name": "Aeroporto Santa Genoveva",
        "kind": "airport",
        "longitude": -49.214376633506134,
        "latitude": -16.629396810110368,
        "terrain_elevation_m": 753.0,
        "terrain_source": "Mapzen Terrain Tiles terrarium z8",
        "radome_height_agl_m": 15.0,
        "target_altitude_m": 3000.0,
        "coverage_radius_km": 340.011,
        "nearby_city_count": 257,
        "radius_status": "geometric_upper_bound_topographic_occlusion_pending"
      }
    },
    {
      "type": "Feature",
      "geometry": {
        "type": "Point",
        "coordinates": [
          -42.80570775298327,
          -2.760083815558231
        ]
      },
      "properties": {
        "node_id": "airport:-42.80570775:-2.76008382",
        "name": "Aeródromo de Barreirinhas",
        "kind": "airport",
        "longitude": -42.80570775298327,
        "latitude": -2.760083815558231,
        "terrain_elevation_m": 10.0,
        "terrain_source": "Mapzen Terrain Tiles terrarium z8",
        "radome_height_agl_m": 15.0,
        "target_altitude_m": 3000.0,
        "coverage_radius_km": 246.39,
        "nearby_city_count": 120,
        "radius_status": "geometric_upper_bound_topographic_occlusion_pending"
      }
    },
    {
      "type": "Feature",
      "geometry": {
        "type": "Point",
        "coordinates": [
          -36.63013334557967,
          -9.776048323958713
        ]
      },
      "properties": {
        "node_id": "airport:-36.63013335:-9.77604832",
        "name": "Aerpoporto de Arapiraca",
        "kind": "airport",
        "longitude": -36.63013334557967,
        "latitude": -9.776048323958713,
        "terrain_elevation_m": 256.0,
        "terrain_source": "Mapzen Terrain Tiles terrarium z8",
        "radome_height_agl_m": 15.0,
        "target_altitude_m": 3000.0,
        "coverage_radius_km": 293.635,
        "nearby_city_count": 416,
        "radius_status": "geometric_upper_bound_topographic_occlusion_pending"
      }
    },
    {
      "type": "Feature",
      "geometry": {
        "type": "Point",
        "coordinates": [
          -66.99467365059952,
          -0.154659923819629
        ]
      },
      "properties": {
        "node_id": "airport:-66.99467365:-0.15465992",
        "name": "Aeroporto São Gabriel da Cachoeira / São Joaquim",
        "kind": "airport",
        "longitude": -66.99467365059952,
        "latitude": -0.154659923819629,
        "terrain_elevation_m": 86.0,
        "terrain_source": "Mapzen Terrain Tiles terrarium z8",
        "radome_height_agl_m": 15.0,
        "target_altitude_m": 3000.0,
        "coverage_radius_km": 267.205,
        "nearby_city_count": 4,
        "radius_status": "geometric_upper_bound_topographic_occlusion_pending"
      }
    },
    {
      "type": "Feature",
      "geometry": {
        "type": "Point",
        "coordinates": [
          -65.3483236127109,
          -4.885533220147624
        ]
      },
      "properties": {
        "node_id": "airport:-65.34832361:-4.88553322",
        "name": "Aeroporto Urucu-Coari",
        "kind": "airport",
        "longitude": -65.3483236127109,
        "latitude": -4.885533220147624,
        "terrain_elevation_m": 73.0,
        "terrain_source": "Mapzen Terrain Tiles terrarium z8",
        "radome_height_agl_m": 15.0,
        "target_altitude_m": 3000.0,
        "coverage_radius_km": 264.447,
        "nearby_city_count": 8,
        "radius_status": "geometric_upper_bound_topographic_occlusion_pending"
      }
    },
    {
      "type": "Feature",
      "geometry": {
        "type": "Point",
        "coordinates": [
          -60.1029547333863,
          -12.693120093064506
        ]
      },
      "properties": {
        "node_id": "airport:-60.10295473:-12.69312009",
        "name": "Aeroporto Vilhena",
        "kind": "airport",
        "longitude": -60.1029547333863,
        "latitude": -12.693120093064506,
        "terrain_elevation_m": 612.0,
        "terrain_source": "Mapzen Terrain Tiles terrarium z8",
        "radome_height_agl_m": 15.0,
        "target_altitude_m": 3000.0,
        "coverage_radius_km": 328.993,
        "nearby_city_count": 48,
        "radius_status": "geometric_upper_bound_topographic_occlusion_pending"
      }
    },
    {
      "type": "Feature",
      "geometry": {
        "type": "Point",
        "coordinates": [
          -63.13527643234195,
          -4.131530616337211
        ]
      },
      "properties": {
        "node_id": "airport:-63.13527643:-4.13153062",
        "name": "Aeroporto Coari",
        "kind": "airport",
        "longitude": -63.13527643234195,
        "latitude": -4.131530616337211,
        "terrain_elevation_m": 44.0,
        "terrain_source": "Mapzen Terrain Tiles terrarium z8",
        "radome_height_agl_m": 15.0,
        "target_altitude_m": 3000.0,
        "coverage_radius_km": 257.441,
        "nearby_city_count": 9,
        "radius_status": "geometric_upper_bound_topographic_occlusion_pending"
      }
    },
    {
      "type": "Feature",
      "geometry": {
        "type": "Point",
        "coordinates": [
          -61.18048610360694,
          -11.64425103099459
        ]
      },
      "properties": {
        "node_id": "airport:-61.18048610:-11.64425103",
        "name": "Aeroporto Pimenta Bueno ",
        "kind": "airport",
        "longitude": -61.18048610360694,
        "latitude": -11.64425103099459,
        "terrain_elevation_m": 202.0,
        "terrain_source": "Mapzen Terrain Tiles terrarium z8",
        "radome_height_agl_m": 15.0,
        "target_altitude_m": 3000.0,
        "coverage_radius_km": 286.5,
        "nearby_city_count": 47,
        "radius_status": "geometric_upper_bound_topographic_occlusion_pending"
      }
    },
    {
      "type": "Feature",
      "geometry": {
        "type": "Point",
        "coordinates": [
          -38.53339162251987,
          -3.776345016458535
        ]
      },
      "properties": {
        "node_id": "airport:-38.53339162:-3.77634502",
        "name": "Aeroporto Internacional Pinto Martins",
        "kind": "airport",
        "longitude": -38.53339162251987,
        "latitude": -3.776345016458535,
        "terrain_elevation_m": 19.0,
        "terrain_source": "Mapzen Terrain Tiles terrarium z8",
        "radome_height_agl_m": 15.0,
        "target_altitude_m": 3000.0,
        "coverage_radius_km": 249.815,
        "nearby_city_count": 130,
        "radius_status": "geometric_upper_bound_topographic_occlusion_pending"
      }
    }
  ]
}
