{
  "type": "FeatureCollection",
  "name": "bc250_continental_preselection",
  "crs": {
    "type": "name",
    "properties": {
      "name": "urn:ogc:def:crs:EPSG::4674"
    }
  },
  "features": [
    {
      "type": "Feature",
      "geometry": {
        "type": "Point",
        "coordinates": [
          -41.795833333333334,
          -20.434722222222224
        ]
      },
      "properties": {
        "candidate_id": "BC250-46",
        "elevation_m": 2891.3,
        "nearest_named_peak": "Pico da Bandeira",
        "nearest_city": "Alto Caparaó",
        "nearest_city_km": 7.737030899273149,
        "cities_within_radius": 415,
        "occupied_azimuth_sectors": 8,
        "logistics_radius_km": 250.0,
        "screening_score": 0.9636375387481111
      }
    },
    {
      "type": "Feature",
      "geometry": {
        "type": "Point",
        "coordinates": [
          -44.843055583319426,
          -22.428333343285946
        ]
      },
      "properties": {
        "candidate_id": "BC250-87",
        "elevation_m": 2798.0,
        "nearest_named_peak": "Pedra da Mina",
        "nearest_city": "Passa Quatro",
        "nearest_city_km": 13.272905839196527,
        "cities_within_radius": 465,
        "occupied_azimuth_sectors": 8,
        "logistics_radius_km": 250.0,
        "screening_score": 0.9457386886165425
      }
    },
    {
      "type": "Feature",
      "geometry": {
        "type": "Point",
        "coordinates": [
          -44.661666531469216,
          -22.380277893981123
        ]
      },
      "properties": {
        "candidate_id": "BC250-105",
        "elevation_m": 2791.0,
        "nearest_named_peak": "Agulhas Negras",
        "nearest_city": "Itatiaia",
        "nearest_city_km": 15.755868589561562,
        "cities_within_radius": 453,
        "occupied_azimuth_sectors": 8,
        "logistics_radius_km": 250.0,
        "screening_score": 0.9430267423948537
      }
    },
    {
      "type": "Feature",
      "geometry": {
        "type": "Point",
        "coordinates": [
          -45.12138888888889,
          -22.503055555555555
        ]
      },
      "properties": {
        "candidate_id": "BC250-63",
        "elevation_m": 2420.7,
        "nearest_named_peak": "Pico dos Marins",
        "nearest_city": "Marmelópolis",
        "nearest_city_km": 7.499486354982979,
        "cities_within_radius": 459,
        "occupied_azimuth_sectors": 8,
        "logistics_radius_km": 250.0,
        "screening_score": 0.8546848454487833
      }
    },
    {
      "type": "Feature",
      "geometry": {
        "type": "Point",
        "coordinates": [
          -44.583333333333336,
          -22.708055555555553
        ]
      },
      "properties": {
        "candidate_id": "BC250-66",
        "elevation_m": 2095.0,
        "nearest_named_peak": "Pedra Alta",
        "nearest_city": "São José do Barreiro",
        "nearest_city_km": 7.090193229519761,
        "cities_within_radius": 413,
        "occupied_azimuth_sectors": 8,
        "logistics_radius_km": 250.0,
        "screening_score": 0.7723578019750172
      }
    },
    {
      "type": "Feature",
      "geometry": {
        "type": "Point",
        "coordinates": [
          -46.05027777777777,
          -22.89638888888889
        ]
      },
      "properties": {
        "candidate_id": "BC250-68",
        "elevation_m": 2082.0,
        "nearest_named_peak": "Pedra do Selado",
        "nearest_city": "Camanducaia",
        "nearest_city_km": 18.43618970671914,
        "cities_within_radius": 422,
        "occupied_azimuth_sectors": 8,
        "logistics_radius_km": 250.0,
        "screening_score": 0.7700890353957613
      }
    },
    {
      "type": "Feature",
      "geometry": {
        "type": "Point",
        "coordinates": [
          -44.65972222222222,
          -22.77027777777778
        ]
      },
      "properties": {
        "candidate_id": "BC250-67",
        "elevation_m": 2088.0,
        "nearest_named_peak": "Morro Tira Chapéu",
        "nearest_city": "São José do Barreiro",
        "nearest_city_km": 16.25807503608656,
        "cities_within_radius": 411,
        "occupied_azimuth_sectors": 7,
        "logistics_radius_km": 250.0,
        "screening_score": 0.7517364127567057
      }
    },
    {
      "type": "Feature",
      "geometry": {
        "type": "Point",
        "coordinates": [
          -41.907500408963934,
          -13.296944648803297
        ]
      },
      "properties": {
        "candidate_id": "BC250-37",
        "elevation_m": 2033.3,
        "nearest_named_peak": "Pico do Barbado",
        "nearest_city": "Piatã",
        "nearest_city_km": 21.85816696428976,
        "cities_within_radius": 158,
        "occupied_azimuth_sectors": 8,
        "logistics_radius_km": 250.0,
        "screening_score": 0.7196908966302457
      }
    },
    {
      "type": "Feature",
      "geometry": {
        "type": "Point",
        "coordinates": [
          -48.8,
          -25.25
        ]
      },
      "properties": {
        "candidate_id": "BC250-69",
        "elevation_m": 1922.0,
        "nearest_named_peak": "Pico Paraná",
        "nearest_city": "Antonina",
        "nearest_city_km": 21.68509465863268,
        "cities_within_radius": 243,
        "occupied_azimuth_sectors": 8,
        "logistics_radius_km": 250.0,
        "screening_score": 0.7099256918163327
      }
    },
    {
      "type": "Feature",
      "geometry": {
        "type": "Point",
        "coordinates": [
          -49.474444444444444,
          -28.124444444444446
        ]
      },
      "properties": {
        "candidate_id": "BC250-73",
        "elevation_m": 1827.0,
        "nearest_named_peak": "Morro da Boa Vista",
        "nearest_city": "Urubici",
        "nearest_city_km": 17.197442381736277,
        "cities_within_radius": 336,
        "occupied_azimuth_sectors": 8,
        "logistics_radius_km": 250.0,
        "screening_score": 0.6999040381275757
      }
    },
    {
      "type": "Feature",
      "geometry": {
        "type": "Point",
        "coordinates": [
          -49.75,
          -28.05
        ]
      },
      "properties": {
        "candidate_id": "BC250-77",
        "elevation_m": 1755.0,
        "nearest_named_peak": "Morro Alegre",
        "nearest_city": "Urupema",
        "nearest_city_km": 16.30116302792811,
        "cities_within_radius": 395,
        "occupied_azimuth_sectors": 8,
        "logistics_radius_km": 250.0,
        "screening_score": 0.6890089289735778
      }
    },
    {
      "type": "Feature",
      "geometry": {
        "type": "Point",
        "coordinates": [
          -49.5825,
          -28.109166666666667
        ]
      },
      "properties": {
        "candidate_id": "BC250-78",
        "elevation_m": 1755.0,
        "nearest_named_peak": "Morro Convento dos Padres",
        "nearest_city": "Urubici",
        "nearest_city_km": 11.30825607516303,
        "cities_within_radius": 360,
        "occupied_azimuth_sectors": 8,
        "logistics_radius_km": 250.0,
        "screening_score": 0.685347878179529
      }
    },
    {
      "type": "Feature",
      "geometry": {
        "type": "Point",
        "coordinates": [
          -66.00750628640174,
          0.8000060355497545
        ]
      },
      "properties": {
        "candidate_id": "BC250-7",
        "elevation_m": 2995.3,
        "nearest_named_peak": "Pico da Neblina",
        "nearest_city": "São Gabriel da Cachoeira",
        "nearest_city_km": 158.52467339043662,
        "cities_within_radius": 2,
        "occupied_azimuth_sectors": 2,
        "logistics_radius_km": 250.0,
        "screening_score": 0.680964861227823
      }
    },
    {
      "type": "Feature",
      "geometry": {
        "type": "Point",
        "coordinates": [
          -41.96416666666667,
          -13.527222222222223
        ]
      },
      "properties": {
        "candidate_id": "BC250-38",
        "elevation_m": 1836.0,
        "nearest_named_peak": "Pico das Almas",
        "nearest_city": "Rio de Contas",
        "nearest_city_km": 17.57755710894268,
        "cities_within_radius": 160,
        "occupied_azimuth_sectors": 8,
        "logistics_radius_km": 250.0,
        "screening_score": 0.6728391273988368
      }
    },
    {
      "type": "Feature",
      "geometry": {
        "type": "Point",
        "coordinates": [
          -41.89722222222222,
          -13.039166666666667
        ]
      },
      "properties": {
        "candidate_id": "BC250-42",
        "elevation_m": 1816.0,
        "nearest_named_peak": "Morro dos Três Morros",
        "nearest_city": "Piatã",
        "nearest_city_km": 18.642924107958375,
        "cities_within_radius": 154,
        "occupied_azimuth_sectors": 8,
        "logistics_radius_km": 250.0,
        "screening_score": 0.666537114323832
      }
    },
    {
      "type": "Feature",
      "geometry": {
        "type": "Point",
        "coordinates": [
          -42.00222222222222,
          -13.205833333333333
        ]
      },
      "properties": {
        "candidate_id": "BC250-43",
        "elevation_m": 1792.0,
        "nearest_named_peak": "",
        "nearest_city": "Piatã",
        "nearest_city_km": 25.78273487356462,
        "cities_within_radius": 154,
        "occupied_azimuth_sectors": 8,
        "logistics_radius_km": 250.0,
        "screening_score": 0.660777805440898
      }
    },
    {
      "type": "Feature",
      "geometry": {
        "type": "Point",
        "coordinates": [
          -41.80972222222222,
          -13.464166666666666
        ]
      },
      "properties": {
        "candidate_id": "BC250-44",
        "elevation_m": 1771.0,
        "nearest_named_peak": "Morro do Barro Vermelho",
        "nearest_city": "Rio de Contas",
        "nearest_city_km": 12.835283139253386,
        "cities_within_radius": 166,
        "occupied_azimuth_sectors": 8,
        "logistics_radius_km": 250.0,
        "screening_score": 0.6586886029116399
      }
    },
    {
      "type": "Feature",
      "geometry": {
        "type": "Point",
        "coordinates": [
          -48.99361110786716,
          -25.90138888794674
        ]
      },
      "properties": {
        "candidate_id": "BC250-75",
        "elevation_m": 1665.0,
        "nearest_named_peak": "",
        "nearest_city": "Tijucas do Sul",
        "nearest_city_km": 18.932553853146654,
        "cities_within_radius": 236,
        "occupied_azimuth_sectors": 8,
        "logistics_radius_km": 250.0,
        "screening_score": 0.6471014771207115
      }
    },
    {
      "type": "Feature",
      "geometry": {
        "type": "Point",
        "coordinates": [
          -60.73680903801756,
          5.2023641107086815
        ]
      },
      "properties": {
        "candidate_id": "BC250-109",
        "elevation_m": 2734.0,
        "nearest_named_peak": "Monte Roraima",
        "nearest_city": "Pacaraima",
        "nearest_city_km": 92.76549696403809,
        "cities_within_radius": 5,
        "occupied_azimuth_sectors": 2,
        "logistics_radius_km": 250.0,
        "screening_score": 0.6456836599483665
      }
    },
    {
      "type": "Feature",
      "geometry": {
        "type": "Point",
        "coordinates": [
          -42.04083333333333,
          -13.3575
        ]
      },
      "properties": {
        "candidate_id": "BC250-45",
        "elevation_m": 1710.0,
        "nearest_named_peak": "",
        "nearest_city": "Érico Cardoso",
        "nearest_city_km": 12.7037273140418,
        "cities_within_radius": 153,
        "occupied_azimuth_sectors": 8,
        "logistics_radius_km": 250.0,
        "screening_score": 0.6408440919368926
      }
    },
    {
      "type": "Feature",
      "geometry": {
        "type": "Point",
        "coordinates": [
          -48.93138888888889,
          -25.464166666666667
        ]
      },
      "properties": {
        "candidate_id": "BC250-72",
        "elevation_m": 1551.0,
        "nearest_named_peak": "Pico do Marumbi",
        "nearest_city": "Morretes",
        "nearest_city_km": 10.030719916433203,
        "cities_within_radius": 245,
        "occupied_azimuth_sectors": 8,
        "logistics_radius_km": 250.0,
        "screening_score": 0.6212193438353465
      }
    },
    {
      "type": "Feature",
      "geometry": {
        "type": "Point",
        "coordinates": [
          -47.48694446858808,
          -13.991666473869605
        ]
      },
      "properties": {
        "candidate_id": "BC250-95",
        "elevation_m": 1691.0,
        "nearest_named_peak": "Serra Pouso Alto",
        "nearest_city": "Alto Paraíso de Goiás",
        "nearest_city_km": 16.821107708631565,
        "cities_within_radius": 83,
        "occupied_azimuth_sectors": 8,
        "logistics_radius_km": 250.0,
        "screening_score": 0.6123038326856292
      }
    },
    {
      "type": "Feature",
      "geometry": {
        "type": "Point",
        "coordinates": [
          -49.800555555555555,
          -28.618333333333332
        ]
      },
      "properties": {
        "candidate_id": "BC250-79",
        "elevation_m": 1403.0,
        "nearest_named_peak": "Pico do Monte Negro",
        "nearest_city": "Morro Grande",
        "nearest_city_km": 21.815399643144524,
        "cities_within_radius": 389,
        "occupied_azimuth_sectors": 8,
        "logistics_radius_km": 250.0,
        "screening_score": 0.6039350319194747
      }
    },
    {
      "type": "Feature",
      "geometry": {
        "type": "Point",
        "coordinates": [
          -47.581388888888895,
          -13.974166666666667
        ]
      },
      "properties": {
        "candidate_id": "BC250-92",
        "elevation_m": 1646.0,
        "nearest_named_peak": "",
        "nearest_city": "Alto Paraíso de Goiás",
        "nearest_city_km": 19.67291315003126,
        "cities_within_radius": 85,
        "occupied_azimuth_sectors": 8,
        "logistics_radius_km": 250.0,
        "screening_score": 0.6024360755212594
      }
    },
    {
      "type": "Feature",
      "geometry": {
        "type": "Point",
        "coordinates": [
          -47.69194444444444,
          -14.135
        ]
      },
      "properties": {
        "candidate_id": "BC250-93",
        "elevation_m": 1575.8,
        "nearest_named_peak": "Morro do Salto",
        "nearest_city": "Alto Paraíso de Goiás",
        "nearest_city_km": 18.792588230555285,
        "cities_within_radius": 94,
        "occupied_azimuth_sectors": 8,
        "logistics_radius_km": 250.0,
        "screening_score": 0.5895278283879823
      }
    },
    {
      "type": "Feature",
      "geometry": {
        "type": "Point",
        "coordinates": [
          -49.98638888888889,
          -28.697777777777777
        ]
      },
      "properties": {
        "candidate_id": "BC250-82",
        "elevation_m": 1303.0,
        "nearest_named_peak": "",
        "nearest_city": "São José dos Ausentes",
        "nearest_city_km": 9.500160039854416,
        "cities_within_radius": 401,
        "occupied_azimuth_sectors": 8,
        "logistics_radius_km": 250.0,
        "screening_score": 0.5811368948948401
      }
    },
    {
      "type": "Feature",
      "geometry": {
        "type": "Point",
        "coordinates": [
          -50.027499999999996,
          -28.576944444444443
        ]
      },
      "properties": {
        "candidate_id": "BC250-83",
        "elevation_m": 1290.0,
        "nearest_named_peak": "",
        "nearest_city": "São José dos Ausentes",
        "nearest_city_km": 19.412681927603543,
        "cities_within_radius": 417,
        "occupied_azimuth_sectors": 8,
        "logistics_radius_km": 250.0,
        "screening_score": 0.5795614036403424
      }
    },
    {
      "type": "Feature",
      "geometry": {
        "type": "Point",
        "coordinates": [
          -47.457499997940964,
          -14.141666645460408
        ]
      },
      "properties": {
        "candidate_id": "BC250-104",
        "elevation_m": 1518.0,
        "nearest_named_peak": "",
        "nearest_city": "Alto Paraíso de Goiás",
        "nearest_city_km": 6.497683412160351,
        "cities_within_radius": 86,
        "occupied_azimuth_sectors": 8,
        "logistics_radius_km": 250.0,
        "screening_score": 0.572177147170444
      }
    },
    {
      "type": "Feature",
      "geometry": {
        "type": "Point",
        "coordinates": [
          -36.39194444444444,
          -8.160277777777779
        ]
      },
      "properties": {
        "candidate_id": "BC250-32",
        "elevation_m": 1195.0,
        "nearest_named_peak": "",
        "nearest_city": "Brejo da Madre de Deus",
        "nearest_city_km": 2.914642163792618,
        "cities_within_radius": 538,
        "occupied_azimuth_sectors": 8,
        "logistics_radius_km": 250.0,
        "screening_score": 0.5668225117317284
      }
    },
    {
      "type": "Feature",
      "geometry": {
        "type": "Point",
        "coordinates": [
          -37.38388888888889,
          -7.2525
        ]
      },
      "properties": {
        "candidate_id": "BC250-29",
        "elevation_m": 1197.0,
        "nearest_named_peak": "Pico do Jabre",
        "nearest_city": "Maturéia",
        "nearest_city_km": 4.861567501338331,
        "cities_within_radius": 526,
        "occupied_azimuth_sectors": 8,
        "logistics_radius_km": 250.0,
        "screening_score": 0.5664116828148116
      }
    },
    {
      "type": "Feature",
      "geometry": {
        "type": "Point",
        "coordinates": [
          -36.72277777777778,
          -8.151388888888889
        ]
      },
      "properties": {
        "candidate_id": "BC250-34",
        "elevation_m": 1170.0,
        "nearest_named_peak": "",
        "nearest_city": "Poção",
        "nearest_city_km": 4.38577836861145,
        "cities_within_radius": 554,
        "occupied_azimuth_sectors": 8,
        "logistics_radius_km": 250.0,
        "screening_score": 0.5619805623325201
      }
    },
    {
      "type": "Feature",
      "geometry": {
        "type": "Point",
        "coordinates": [
          -48.11388888888889,
          -15.586944444444445
        ]
      },
      "properties": {
        "candidate_id": "BC250-116",
        "elevation_m": 1336.0,
        "nearest_named_peak": "Pico do Roncador",
        "nearest_city": "Águas Lindas de Goiás",
        "nearest_city_km": 23.216294229092167,
        "cities_within_radius": 156,
        "occupied_azimuth_sectors": 8,
        "logistics_radius_km": 250.0,
        "screening_score": 0.5518581669675627
      }
    },
    {
      "type": "Feature",
      "geometry": {
        "type": "Point",
        "coordinates": [
          -38.05555555555555,
          -7.822777777777778
        ]
      },
      "properties": {
        "candidate_id": "BC250-118",
        "elevation_m": 1185.0,
        "nearest_named_peak": "Pico-73",
        "nearest_city": "Triunfo",
        "nearest_city_km": 5.455213116504057,
        "cities_within_radius": 391,
        "occupied_azimuth_sectors": 8,
        "logistics_radius_km": 250.0,
        "screening_score": 0.5518236804507182
      }
    },
    {
      "type": "Feature",
      "geometry": {
        "type": "Point",
        "coordinates": [
          -37.35027777777778,
          -7.966111111111111
        ]
      },
      "properties": {
        "candidate_id": "BC250-31",
        "elevation_m": 1070.0,
        "nearest_named_peak": "",
        "nearest_city": "Sertânia",
        "nearest_city_km": 14.89256579132804,
        "cities_within_radius": 539,
        "occupied_azimuth_sectors": 8,
        "logistics_radius_km": 250.0,
        "screening_score": 0.5368994448178467
      }
    },
    {
      "type": "Feature",
      "geometry": {
        "type": "Point",
        "coordinates": [
          -47.77305555555555,
          -13.32861111111111
        ]
      },
      "properties": {
        "candidate_id": "BC250-19",
        "elevation_m": 1340.0,
        "nearest_named_peak": "",
        "nearest_city": "Minaçu",
        "nearest_city_km": 52.5205115852208,
        "cities_within_radius": 84,
        "occupied_azimuth_sectors": 8,
        "logistics_radius_km": 250.0,
        "screening_score": 0.5285421519108365
      }
    },
    {
      "type": "Feature",
      "geometry": {
        "type": "Point",
        "coordinates": [
          -60.61277777777778,
          5.010555555555555
        ]
      },
      "properties": {
        "candidate_id": "BC250-10",
        "elevation_m": 2078.0,
        "nearest_named_peak": "",
        "nearest_city": "Uiramutã",
        "nearest_city_km": 67.99293087394945,
        "cities_within_radius": 8,
        "occupied_azimuth_sectors": 3,
        "logistics_radius_km": 250.0,
        "screening_score": 0.5230541375258376
      }
    },
    {
      "type": "Feature",
      "geometry": {
        "type": "Point",
        "coordinates": [
          -47.98222222222223,
          -12.994166666666667
        ]
      },
      "properties": {
        "candidate_id": "BC250-20",
        "elevation_m": 1152.0,
        "nearest_named_peak": "",
        "nearest_city": "São Salvador do Tocantins",
        "nearest_city_km": 38.67513997727756,
        "cities_within_radius": 83,
        "occupied_azimuth_sectors": 8,
        "logistics_radius_km": 250.0,
        "screening_score": 0.4829593540230688
      }
    },
    {
      "type": "Feature",
      "geometry": {
        "type": "Point",
        "coordinates": [
          -47.9825,
          -12.861388888888888
        ]
      },
      "properties": {
        "candidate_id": "BC250-21",
        "elevation_m": 1139.0,
        "nearest_named_peak": "",
        "nearest_city": "Paranã",
        "nearest_city_km": 29.882695745082138,
        "cities_within_radius": 82,
        "occupied_azimuth_sectors": 8,
        "logistics_radius_km": 250.0,
        "screening_score": 0.4793659092817709
      }
    },
    {
      "type": "Feature",
      "geometry": {
        "type": "Point",
        "coordinates": [
          -36.68861111111111,
          -6.864444444444444
        ]
      },
      "properties": {
        "candidate_id": "BC250-28",
        "elevation_m": 807.0,
        "nearest_named_peak": "",
        "nearest_city": "Equador",
        "nearest_city_km": 9.522007734394597,
        "cities_within_radius": 552,
        "occupied_azimuth_sectors": 8,
        "logistics_radius_km": 250.0,
        "screening_score": 0.47472818708594655
      }
    },
    {
      "type": "Feature",
      "geometry": {
        "type": "Point",
        "coordinates": [
          -48.49527759176591,
          -12.917777793730226
        ]
      },
      "properties": {
        "candidate_id": "BC250-94",
        "elevation_m": 1100.0,
        "nearest_named_peak": "",
        "nearest_city": "Palmeirópolis",
        "nearest_city_km": 16.226861892622047,
        "cities_within_radius": 89,
        "occupied_azimuth_sectors": 8,
        "logistics_radius_km": 250.0,
        "screening_score": 0.4732104455102032
      }
    },
    {
      "type": "Feature",
      "geometry": {
        "type": "Point",
        "coordinates": [
          -37.766944220914716,
          -9.130556461492242
        ]
      },
      "properties": {
        "candidate_id": "BC250-125",
        "elevation_m": 844.0,
        "nearest_named_peak": "",
        "nearest_city": "Mata Grande",
        "nearest_city_km": 4.117835970562582,
        "cities_within_radius": 388,
        "occupied_azimuth_sectors": 8,
        "logistics_radius_km": 250.0,
        "screening_score": 0.4696895542368361
      }
    },
    {
      "type": "Feature",
      "geometry": {
        "type": "Point",
        "coordinates": [
          -37.338888960162215,
          -9.24333343135406
        ]
      },
      "properties": {
        "candidate_id": "BC250-119",
        "elevation_m": 839.0,
        "nearest_named_peak": "",
        "nearest_city": "Maravilha",
        "nearest_city_km": 2.0096767840168557,
        "cities_within_radius": 392,
        "occupied_azimuth_sectors": 8,
        "logistics_radius_km": 250.0,
        "screening_score": 0.46889444263615687
      }
    },
    {
      "type": "Feature",
      "geometry": {
        "type": "Point",
        "coordinates": [
          -65.57804446844914,
          0.7438907394734149
        ]
      },
      "properties": {
        "candidate_id": "BC250-40",
        "elevation_m": 2105.0,
        "nearest_named_peak": "Pico Guimarães Rosa",
        "nearest_city": "Santa Isabel do Rio Negro",
        "nearest_city_km": 143.19293168424392,
        "cities_within_radius": 2,
        "occupied_azimuth_sectors": 2,
        "logistics_radius_km": 250.0,
        "screening_score": 0.4673184987913153
      }
    },
    {
      "type": "Feature",
      "geometry": {
        "type": "Point",
        "coordinates": [
          -38.48305555555556,
          -6.38
        ]
      },
      "properties": {
        "candidate_id": "BC250-114",
        "elevation_m": 852.0,
        "nearest_named_peak": "Pico-75",
        "nearest_city": "Poço Dantas",
        "nearest_city_km": 3.049981590253971,
        "cities_within_radius": 345,
        "occupied_azimuth_sectors": 8,
        "logistics_radius_km": 250.0,
        "screening_score": 0.4669748421559131
      }
    },
    {
      "type": "Feature",
      "geometry": {
        "type": "Point",
        "coordinates": [
          -37.72805555555556,
          -8.953055555555554
        ]
      },
      "properties": {
        "candidate_id": "BC250-36",
        "elevation_m": 808.0,
        "nearest_named_peak": "",
        "nearest_city": "Manari",
        "nearest_city_km": 11.40116066068191,
        "cities_within_radius": 410,
        "occupied_azimuth_sectors": 8,
        "logistics_radius_km": 250.0,
        "screening_score": 0.46322712788364206
      }
    },
    {
      "type": "Feature",
      "geometry": {
        "type": "Point",
        "coordinates": [
          -38.42833333333333,
          -6.307222222222222
        ]
      },
      "properties": {
        "candidate_id": "BC250-112",
        "elevation_m": 818.0,
        "nearest_named_peak": "Pico-74",
        "nearest_city": "Coronel João Pessoa",
        "nearest_city_km": 5.462642920844986,
        "cities_within_radius": 350,
        "occupied_azimuth_sectors": 8,
        "logistics_radius_km": 250.0,
        "screening_score": 0.4593834553896753
      }
    },
    {
      "type": "Feature",
      "geometry": {
        "type": "Point",
        "coordinates": [
          -40.82888888888889,
          -6.248888888888889
        ]
      },
      "properties": {
        "candidate_id": "BC250-115",
        "elevation_m": 843.0,
        "nearest_named_peak": "Pico-70",
        "nearest_city": "Parambu",
        "nearest_city_km": 15.417096534132995,
        "cities_within_radius": 225,
        "occupied_azimuth_sectors": 8,
        "logistics_radius_km": 250.0,
        "screening_score": 0.4479648906528
      }
    },
    {
      "type": "Feature",
      "geometry": {
        "type": "Point",
        "coordinates": [
          -37.86805555555556,
          -9.981944444444444
        ]
      },
      "properties": {
        "candidate_id": "BC250-123",
        "elevation_m": 742.0,
        "nearest_named_peak": "",
        "nearest_city": "Pedro Alexandre",
        "nearest_city_km": 4.5111874305882,
        "cities_within_radius": 296,
        "occupied_azimuth_sectors": 8,
        "logistics_radius_km": 250.0,
        "screening_score": 0.43453641273391685
      }
    },
    {
      "type": "Feature",
      "geometry": {
        "type": "Point",
        "coordinates": [
          -63.57666666666667,
          -10.831666666666667
        ]
      },
      "properties": {
        "candidate_id": "BC250-2",
        "elevation_m": 1126.0,
        "nearest_named_peak": "Pico do Tracuá",
        "nearest_city": "Campo Novo de Rondônia",
        "nearest_city_km": 29.51485951817611,
        "cities_within_radius": 42,
        "occupied_azimuth_sectors": 7,
        "logistics_radius_km": 250.0,
        "screening_score": 0.4314777755408671
      }
    },
    {
      "type": "Feature",
      "geometry": {
        "type": "Point",
        "coordinates": [
          -37.361666666666665,
          -10.738333333333333
        ]
      },
      "properties": {
        "candidate_id": "BC250-120",
        "elevation_m": 659.0,
        "nearest_named_peak": "",
        "nearest_city": "Areia Branca",
        "nearest_city_km": 5.998047504704726,
        "cities_within_radius": 269,
        "occupied_azimuth_sectors": 8,
        "logistics_radius_km": 250.0,
        "screening_score": 0.4108480060141131
      }
    },
    {
      "type": "Feature",
      "geometry": {
        "type": "Point",
        "coordinates": [
          -53.26722222222222,
          -18.00611111111111
        ]
      },
      "properties": {
        "candidate_id": "BC250-85",
        "elevation_m": 898.0,
        "nearest_named_peak": "",
        "nearest_city": "Alto Taquari",
        "nearest_city_km": 19.62611880032656,
        "cities_within_radius": 49,
        "occupied_azimuth_sectors": 8,
        "logistics_radius_km": 250.0,
        "screening_score": 0.40148141073696886
      }
    },
    {
      "type": "Feature",
      "geometry": {
        "type": "Point",
        "coordinates": [
          -37.94972222222222,
          -10.818888888888889
        ]
      },
      "properties": {
        "candidate_id": "BC250-126",
        "elevation_m": 607.0,
        "nearest_named_peak": "",
        "nearest_city": "Simão Dias",
        "nearest_city_km": 17.6753182935562,
        "cities_within_radius": 278,
        "occupied_azimuth_sectors": 8,
        "logistics_radius_km": 250.0,
        "screening_score": 0.39966678102123543
      }
    },
    {
      "type": "Feature",
      "geometry": {
        "type": "Point",
        "coordinates": [
          -63.665,
          -10.896944444444443
        ]
      },
      "properties": {
        "candidate_id": "BC250-5",
        "elevation_m": 950.0,
        "nearest_named_peak": "",
        "nearest_city": "Campo Novo de Rondônia",
        "nearest_city_km": 36.68025191230024,
        "cities_within_radius": 42,
        "occupied_azimuth_sectors": 7,
        "logistics_radius_km": 250.0,
        "screening_score": 0.38924284373268414
      }
    },
    {
      "type": "Feature",
      "geometry": {
        "type": "Point",
        "coordinates": [
          -46.098888888888894,
          -10.213333333333333
        ]
      },
      "properties": {
        "candidate_id": "BC250-24",
        "elevation_m": 801.0,
        "nearest_named_peak": "",
        "nearest_city": "Mateiros",
        "nearest_city_km": 50.79504443131311,
        "cities_within_radius": 52,
        "occupied_azimuth_sectors": 8,
        "logistics_radius_km": 250.0,
        "screening_score": 0.3805095213841048
      }
    },
    {
      "type": "Feature",
      "geometry": {
        "type": "Point",
        "coordinates": [
          -46.00416666666667,
          -10.2625
        ]
      },
      "properties": {
        "candidate_id": "BC250-23",
        "elevation_m": 804.0,
        "nearest_named_peak": "",
        "nearest_city": "Mateiros",
        "nearest_city_km": 55.0680601587122,
        "cities_within_radius": 49,
        "occupied_azimuth_sectors": 8,
        "logistics_radius_km": 250.0,
        "screening_score": 0.37892411761214384
      }
    },
    {
      "type": "Feature",
      "geometry": {
        "type": "Point",
        "coordinates": [
          -46.02055555555555,
          -10.084444444444445
        ]
      },
      "properties": {
        "candidate_id": "BC250-26",
        "elevation_m": 788.0,
        "nearest_named_peak": "",
        "nearest_city": "Barreiras do Piauí",
        "nearest_city_km": 62.507706614552546,
        "cities_within_radius": 48,
        "occupied_azimuth_sectors": 8,
        "logistics_radius_km": 250.0,
        "screening_score": 0.3742852901283869
      }
    },
    {
      "type": "Feature",
      "geometry": {
        "type": "Point",
        "coordinates": [
          -46.22500021626372,
          -9.954444450595124
        ]
      },
      "properties": {
        "candidate_id": "BC250-97",
        "elevation_m": 726.0,
        "nearest_named_peak": "",
        "nearest_city": "São Félix do Tocantins",
        "nearest_city_km": 53.47249145101577,
        "cities_within_radius": 53,
        "occupied_azimuth_sectors": 8,
        "logistics_radius_km": 250.0,
        "screening_score": 0.36325120586519727
      }
    },
    {
      "type": "Feature",
      "geometry": {
        "type": "Point",
        "coordinates": [
          -50.33222312178807,
          -6.401943440561195
        ]
      },
      "properties": {
        "candidate_id": "BC250-98",
        "elevation_m": 897.0,
        "nearest_named_peak": "",
        "nearest_city": "Água Azul do Norte",
        "nearest_city_km": 47.979365870210614,
        "cities_within_radius": 43,
        "occupied_azimuth_sectors": 6,
        "logistics_radius_km": 250.0,
        "screening_score": 0.35868391395303945
      }
    },
    {
      "type": "Feature",
      "geometry": {
        "type": "Point",
        "coordinates": [
          -50.68416666666666,
          -7.434722222222223
        ]
      },
      "properties": {
        "candidate_id": "BC250-12",
        "elevation_m": 829.0,
        "nearest_named_peak": "",
        "nearest_city": "Bannach",
        "nearest_city_km": 31.504769725192876,
        "cities_within_radius": 34,
        "occupied_azimuth_sectors": 7,
        "logistics_radius_km": 250.0,
        "screening_score": 0.3520621164925557
      }
    },
    {
      "type": "Feature",
      "geometry": {
        "type": "Point",
        "coordinates": [
          -60.099720906139396,
          -15.04166549006509
        ]
      },
      "properties": {
        "candidate_id": "BC250-88",
        "elevation_m": 1078.0,
        "nearest_named_peak": "",
        "nearest_city": "Vila Bela da Santíssima Trindade",
        "nearest_city_km": 16.793699954941545,
        "cities_within_radius": 26,
        "occupied_azimuth_sectors": 4,
        "logistics_radius_km": 250.0,
        "screening_score": 0.3452977952980753
      }
    },
    {
      "type": "Feature",
      "geometry": {
        "type": "Point",
        "coordinates": [
          -59.45888888908099,
          -16.063333410530632
        ]
      },
      "properties": {
        "candidate_id": "BC250-102",
        "elevation_m": 1118.0,
        "nearest_named_peak": "",
        "nearest_city": "Pontes e Lacerda",
        "nearest_city_km": 93.4838091746639,
        "cities_within_radius": 19,
        "occupied_azimuth_sectors": 4,
        "logistics_radius_km": 250.0,
        "screening_score": 0.34302347890024565
      }
    },
    {
      "type": "Feature",
      "geometry": {
        "type": "Point",
        "coordinates": [
          -50.13027777777778,
          -6.321944444444444
        ]
      },
      "properties": {
        "candidate_id": "BC250-15",
        "elevation_m": 770.0,
        "nearest_named_peak": "",
        "nearest_city": "Parauapebas",
        "nearest_city_km": 38.15701856956714,
        "cities_within_radius": 55,
        "occupied_azimuth_sectors": 6,
        "logistics_radius_km": 250.0,
        "screening_score": 0.3377487672587001
      }
    },
    {
      "type": "Feature",
      "geometry": {
        "type": "Point",
        "coordinates": [
          -63.90277777777778,
          -10.893055555555556
        ]
      },
      "properties": {
        "candidate_id": "BC250-6",
        "elevation_m": 810.0,
        "nearest_named_peak": "",
        "nearest_city": "Campo Novo de Rondônia",
        "nearest_city_km": 47.29818951461078,
        "cities_within_radius": 36,
        "occupied_azimuth_sectors": 6,
        "logistics_radius_km": 250.0,
        "screening_score": 0.3309511970802463
      }
    },
    {
      "type": "Feature",
      "geometry": {
        "type": "Point",
        "coordinates": [
          -50.514722222222225,
          -7.105555555555555
        ]
      },
      "properties": {
        "candidate_id": "BC250-14",
        "elevation_m": 775.0,
        "nearest_named_peak": "",
        "nearest_city": "Bannach",
        "nearest_city_km": 29.779551685012194,
        "cities_within_radius": 39,
        "occupied_azimuth_sectors": 6,
        "logistics_radius_km": 250.0,
        "screening_score": 0.32563663029846784
      }
    },
    {
      "type": "Feature",
      "geometry": {
        "type": "Point",
        "coordinates": [
          -57.59277777777778,
          -19.20138888888889
        ]
      },
      "properties": {
        "candidate_id": "BC250-84",
        "elevation_m": 1065.4,
        "nearest_named_peak": "Morro Grande",
        "nearest_city": "Ladário",
        "nearest_city_km": 21.840537227872172,
        "cities_within_radius": 7,
        "occupied_azimuth_sectors": 3,
        "logistics_radius_km": 250.0,
        "screening_score": 0.2753993970015298
      }
    },
    {
      "type": "Feature",
      "geometry": {
        "type": "Point",
        "coordinates": [
          -57.56472219085799,
          -17.923055622585096
        ]
      },
      "properties": {
        "candidate_id": "BC250-90",
        "elevation_m": 976.0,
        "nearest_named_peak": "",
        "nearest_city": "Ladário",
        "nearest_city_km": 120.40713279445596,
        "cities_within_radius": 5,
        "occupied_azimuth_sectors": 3,
        "logistics_radius_km": 250.0,
        "screening_score": 0.24256428427344753
      }
    },
    {
      "type": "Feature",
      "geometry": {
        "type": "Point",
        "coordinates": [
          -52.7,
          1.7541666666666667
        ]
      },
      "properties": {
        "candidate_id": "BC250-17",
        "elevation_m": 607.0,
        "nearest_named_peak": "",
        "nearest_city": "Serra do Navio",
        "nearest_city_km": 122.78283083628382,
        "cities_within_radius": 9,
        "occupied_azimuth_sectors": 3,
        "logistics_radius_km": 250.0,
        "screening_score": 0.17422491975095356
      }
    },
    {
      "type": "Feature",
      "geometry": {
        "type": "Point",
        "coordinates": [
          -73.75913721383712,
          -7.173919159866354
        ]
      },
      "properties": {
        "candidate_id": "BC250-107",
        "elevation_m": 609.0,
        "nearest_named_peak": "",
        "nearest_city": "Mâncio Lima",
        "nearest_city_km": 106.15127307520432,
        "cities_within_radius": 7,
        "occupied_azimuth_sectors": 3,
        "logistics_radius_km": 250.0,
        "screening_score": 0.16587653974440064
      }
    },
    {
      "type": "Feature",
      "geometry": {
        "type": "Point",
        "coordinates": [
          -73.62804533308962,
          -8.056129891269945
        ]
      },
      "properties": {
        "candidate_id": "BC250-39",
        "elevation_m": 505.0,
        "nearest_named_peak": "",
        "nearest_city": "Mâncio Lima",
        "nearest_city_km": 93.64016177264125,
        "cities_within_radius": 8,
        "occupied_azimuth_sectors": 3,
        "logistics_radius_km": 250.0,
        "screening_score": 0.14557943449020191
      }
    },
    {
      "type": "Feature",
      "geometry": {
        "type": "Point",
        "coordinates": [
          -73.33213770817534,
          -8.476334841474165
        ]
      },
      "properties": {
        "candidate_id": "BC250-108",
        "elevation_m": 495.0,
        "nearest_named_peak": "",
        "nearest_city": "Porto Walter",
        "nearest_city_km": 68.47566451245245,
        "cities_within_radius": 8,
        "occupied_azimuth_sectors": 3,
        "logistics_radius_km": 250.0,
        "screening_score": 0.14317972245564606
      }
    },
    {
      "type": "Feature",
      "geometry": {
        "type": "Point",
        "coordinates": [
          -53.12916666666667,
          1.8416666666666668
        ]
      },
      "properties": {
        "candidate_id": "BC250-16",
        "elevation_m": 701.0,
        "nearest_named_peak": "",
        "nearest_city": "Serra do Navio",
        "nearest_city_km": 163.44756306315793,
        "cities_within_radius": 5,
        "occupied_azimuth_sectors": 1,
        "logistics_radius_km": 250.0,
        "screening_score": 0.13907220332316156
      }
    },
    {
      "type": "Feature",
      "geometry": {
        "type": "Point",
        "coordinates": [
          -57.5,
          1.75
        ]
      },
      "properties": {
        "candidate_id": "BC250-11",
        "elevation_m": 906.0,
        "nearest_named_peak": "",
        "nearest_city": "Caroebe",
        "nearest_city_km": 262.7488117598803,
        "cities_within_radius": 0,
        "occupied_azimuth_sectors": 0,
        "logistics_radius_km": 250.0,
        "screening_score": 0.09862816462024557
      }
    },
    {
      "type": "Feature",
      "geometry": {
        "type": "Point",
        "coordinates": [
          -53.21666666666667,
          2.0208333333333335
        ]
      },
      "properties": {
        "candidate_id": "BC250-18",
        "elevation_m": 562.0,
        "nearest_named_peak": "",
        "nearest_city": "Serra do Navio",
        "nearest_city_km": 183.90052004944286,
        "cities_within_radius": 3,
        "occupied_azimuth_sectors": 1,
        "logistics_radius_km": 250.0,
        "screening_score": 0.08967461899850017
      }
    },
    {
      "type": "Feature",
      "geometry": {
        "type": "Point",
        "coordinates": [
          -54.87111262882643,
          2.436110980663866
        ]
      },
      "properties": {
        "candidate_id": "BC250-99",
        "elevation_m": 656.0,
        "nearest_named_peak": "",
        "nearest_city": "Serra do Navio",
        "nearest_city_km": 361.9236312829126,
        "cities_within_radius": 0,
        "occupied_azimuth_sectors": 0,
        "logistics_radius_km": 250.0,
        "screening_score": 0.03863536375634923
      }
    },
    {
      "type": "Feature",
      "geometry": {
        "type": "Point",
        "coordinates": [
          -54.43619226594401,
          2.2102159198697233
        ]
      },
      "properties": {
        "candidate_id": "BC250-111",
        "elevation_m": 591.0,
        "nearest_named_peak": "",
        "nearest_city": "Serra do Navio",
        "nearest_city_km": 307.46804203319715,
        "cities_within_radius": 0,
        "occupied_azimuth_sectors": 0,
        "logistics_radius_km": 250.0,
        "screening_score": 0.02303723553173619
      }
    }
  ]
}
